{
"type": "FeatureCollection",
"name": "SardinianTRAININGpolygonsUSE",
"features": [
{ "type": "Feature", "properties": { "Classcode": "Farms", "Classname": "Agriculture (Annual Herbaceous)", "Classvalue": 1, "RED": 255, "GREEN": 255, "BLUE": 0, "Count": 41 }, "geometry": { "type": "Polygon", "coordinates": [ [ [ 8.55017, 39.761033, 0.0 ], [ 8.550197, 39.764017, 0.0 ], [ 8.549141, 39.763999, 0.0 ], [ 8.549181, 39.761033, 0.0 ], [ 8.55017, 39.761033, 0.0 ] ] ] } },
{ "type": "Feature", "properties": { "Classcode": "Farms", "Classname": "Agriculture (Annual Herbaceous)", "Classvalue": 1, "RED": 255, "GREEN": 255, "BLUE": 0, "Count": 40 }, "geometry": { "type": "Polygon", "coordinates": [ [ [ 8.540284, 39.757384, 0.0 ], [ 8.540279, 39.760569, 0.0 ], [ 8.53939, 39.760566, 0.0 ], [ 8.53935, 39.757375, 0.0 ], [ 8.540284, 39.757384, 0.0 ] ] ] } },
{ "type": "Feature", "properties": { "Classcode": "Farms", "Classname": "Agriculture (Annual Herbaceous)", "Classvalue": 1, "RED": 255, "GREEN": 255, "BLUE": 0, "Count": 46 }, "geometry": { "type": "Polygon", "coordinates": [ [ [ 8.540343, 39.757034, 0.0 ], [ 8.53935, 39.757002, 0.0 ], [ 8.539341, 39.753614, 0.0 ], [ 8.540347, 39.753605, 0.0 ], [ 8.540343, 39.757034, 0.0 ] ] ] } },
{ "type": "Feature", "properties": { "Classcode": "Farms", "Classname": "Agriculture (Annual Herbaceous)", "Classvalue": 1, "RED": 255, "GREEN": 255, "BLUE": 0, "Count": 40 }, "geometry": { "type": "Polygon", "coordinates": [ [ [ 8.557678, 39.749338, 0.0 ], [ 8.556702, 39.749366, 0.0 ], [ 8.556751, 39.746326, 0.0 ], [ 8.557692, 39.746312, 0.0 ], [ 8.557678, 39.749338, 0.0 ] ] ] } },
{ "type": "Feature", "properties": { "Classcode": "Farms", "Classname": "Agriculture (Annual Herbaceous)", "Classvalue": 1, "RED": 255, "GREEN": 255, "BLUE": 0, "Count": 262 }, "geometry": { "type": "Polygon", "coordinates": [ [ [ 8.582809, 39.835062, 0.0 ], [ 8.579628, 39.83504, 0.0 ], [ 8.576644, 39.829467, 0.0 ], [ 8.579024, 39.828304, 0.0 ], [ 8.582809, 39.835062, 0.0 ] ] ] } },
{ "type": "Feature", "properties": { "Classcode": "Farms", "Classname": "Agriculture (Annual Herbaceous)", "Classvalue": 1, "RED": 255, "GREEN": 255, "BLUE": 0, "Count": 95 }, "geometry": { "type": "Polygon", "coordinates": [ [ [ 8.61054, 39.781312, 0.0 ], [ 8.604874, 39.781326, 0.0 ], [ 8.60493, 39.780153, 0.0 ], [ 8.610498, 39.780027, 0.0 ], [ 8.61054, 39.781312, 0.0 ] ] ] } },
{ "type": "Feature", "properties": { "Classcode": "Farms", "Classname": "Agriculture (Annual Herbaceous)", "Classvalue": 1, "RED": 255, "GREEN": 255, "BLUE": 0, "Count": 173 }, "geometry": { "type": "Polygon", "coordinates": [ [ [ 8.863126, 39.509591, 0.0 ], [ 8.858442, 39.513496, 0.0 ], [ 8.856928, 39.511916, 0.0 ], [ 8.86125, 39.508384, 0.0 ], [ 8.863126, 39.509591, 0.0 ] ] ] } },
{ "type": "Feature", "properties": { "Classcode": "Farms", "Classname": "Agriculture (Annual Herbaceous)", "Classvalue": 1, "RED": 255, "GREEN": 255, "BLUE": 0, "Count": 53 }, "geometry": { "type": "Polygon", "coordinates": [ [ [ 8.841653, 39.505348, 0.0 ], [ 8.838465, 39.506563, 0.0 ], [ 8.83796, 39.506036, 0.0 ], [ 8.840712, 39.504042, 0.0 ], [ 8.841653, 39.505348, 0.0 ] ] ] } },
{ "type": "Feature", "properties": { "Classcode": "Farms", "Classname": "Agriculture (Annual Herbaceous)", "Classvalue": 1, "RED": 255, "GREEN": 255, "BLUE": 0, "Count": 44 }, "geometry": { "type": "Polygon", "coordinates": [ [ [ 8.575877, 39.80142, 0.0 ], [ 8.574852, 39.801455, 0.0 ], [ 8.574873, 39.798282, 0.0 ], [ 8.575877, 39.798275, 0.0 ], [ 8.575877, 39.80142, 0.0 ] ] ] } },
{ "type": "Feature", "properties": { "Classcode": "Farms", "Classname": "Agriculture (Annual Herbaceous)", "Classvalue": 1, "RED": 255, "GREEN": 255, "BLUE": 0, "Count": 7 }, "geometry": { "type": "Polygon", "coordinates": [ [ [ 9.130419, 39.273152, 0.0 ], [ 9.12983, 39.27402, 0.0 ], [ 9.12939, 39.273786, 0.0 ], [ 9.129938, 39.272892, 0.0 ], [ 9.130419, 39.273152, 0.0 ] ] ] } },
{ "type": "Feature", "properties": { "Classcode": "Farms", "Classname": "Agriculture (Annual Herbaceous)", "Classvalue": 1, "RED": 255, "GREEN": 255, "BLUE": 0, "Count": 40 }, "geometry": { "type": "Polygon", "coordinates": [ [ [ 8.947851, 39.232631, 0.0 ], [ 8.94784, 39.235275, 0.0 ], [ 8.946765, 39.235275, 0.0 ], [ 8.946699, 39.23262, 0.0 ], [ 8.947851, 39.232631, 0.0 ] ] ] } },
{ "type": "Feature", "properties": { "Classcode": "Farms", "Classname": "Agriculture (Annual Herbaceous)", "Classvalue": 1, "RED": 255, "GREEN": 255, "BLUE": 0, "Count": 62 }, "geometry": { "type": "Polygon", "coordinates": [ [ [ 8.953155, 39.241306, 0.0 ], [ 8.951715, 39.242458, 0.0 ], [ 8.949658, 39.24092, 0.0 ], [ 8.951154, 39.239804, 0.0 ], [ 8.953155, 39.241306, 0.0 ] ] ] } },
{ "type": "Feature", "properties": { "Classcode": "Farms", "Classname": "Agriculture (Annual Herbaceous)", "Classvalue": 1, "RED": 255, "GREEN": 255, "BLUE": 0, "Count": 48 }, "geometry": { "type": "Polygon", "coordinates": [ [ [ 8.949518, 39.247836, 0.0 ], [ 8.948136, 39.248834, 0.0 ], [ 8.946392, 39.24754, 0.0 ], [ 8.947664, 39.24652, 0.0 ], [ 8.949518, 39.247836, 0.0 ] ] ] } },
{ "type": "Feature", "properties": { "Classcode": "Farms", "Classname": "Agriculture (Annual Herbaceous)", "Classvalue": 1, "RED": 255, "GREEN": 255, "BLUE": 0, "Count": 80 }, "geometry": { "type": "Polygon", "coordinates": [ [ [ 9.040639, 40.664789, 0.0 ], [ 9.037929, 40.666357, 0.0 ], [ 9.036459, 40.665206, 0.0 ], [ 9.03998, 40.663352, 0.0 ], [ 9.040639, 40.664789, 0.0 ] ] ] } },
{ "type": "Feature", "properties": { "Classcode": "Farms", "Classname": "Agriculture (Annual Herbaceous)", "Classvalue": 1, "RED": 255, "GREEN": 255, "BLUE": 0, "Count": 24 }, "geometry": { "type": "Polygon", "coordinates": [ [ [ 8.827778, 40.735164, 0.0 ], [ 8.827185, 40.736615, 0.0 ], [ 8.826138, 40.736332, 0.0 ], [ 8.826533, 40.734898, 0.0 ], [ 8.827778, 40.735164, 0.0 ] ] ] } },
{ "type": "Feature", "properties": { "Classcode": "Farms", "Classname": "Agriculture (Annual Herbaceous)", "Classvalue": 1, "RED": 255, "GREEN": 255, "BLUE": 0, "Count": 26 }, "geometry": { "type": "Polygon", "coordinates": [ [ [ 8.828344, 40.739347, 0.0 ], [ 8.827805, 40.738008, 0.0 ], [ 8.828344, 40.737473, 0.0 ], [ 8.829072, 40.737994, 0.0 ], [ 8.829539, 40.738979, 0.0 ], [ 8.829144, 40.739307, 0.0 ], [ 8.828861, 40.739086, 0.0 ], [ 8.828344, 40.739347, 0.0 ] ] ] } },
{ "type": "Feature", "properties": { "Classcode": "Farms", "Classname": "Agriculture (Annual Herbaceous)", "Classvalue": 1, "RED": 255, "GREEN": 255, "BLUE": 0, "Count": 135 }, "geometry": { "type": "Polygon", "coordinates": [ [ [ 8.438264, 40.744059, 0.0 ], [ 8.436282, 40.744675, 0.0 ], [ 8.434274, 40.744193, 0.0 ], [ 8.433765, 40.743309, 0.0 ], [ 8.434541, 40.74189, 0.0 ], [ 8.436952, 40.741434, 0.0 ], [ 8.438264, 40.744059, 0.0 ] ] ] } },
{ "type": "Feature", "properties": { "Classcode": "Farms", "Classname": "Agriculture (Annual Herbaceous)", "Classvalue": 1, "RED": 255, "GREEN": 255, "BLUE": 0, "Count": 215 }, "geometry": { "type": "Polygon", "coordinates": [ [ [ 8.438443, 40.738787, 0.0 ], [ 8.438049, 40.740398, 0.0 ], [ 8.433695, 40.740895, 0.0 ], [ 8.433661, 40.738033, 0.0 ], [ 8.437072, 40.736302, 0.0 ], [ 8.438443, 40.738787, 0.0 ] ] ] } },
{ "type": "Feature", "properties": { "Classcode": "Farms", "Classname": "Agriculture (Annual Herbaceous)", "Classvalue": 1, "RED": 255, "GREEN": 255, "BLUE": 0, "Count": 77 }, "geometry": { "type": "Polygon", "coordinates": [ [ [ 8.370152, 40.745026, 0.0 ], [ 8.369535, 40.746672, 0.0 ], [ 8.366501, 40.745918, 0.0 ], [ 8.367341, 40.744135, 0.0 ], [ 8.370152, 40.745026, 0.0 ] ] ] } },
{ "type": "Feature", "properties": { "Classcode": "Farms", "Classname": "Agriculture (Annual Herbaceous)", "Classvalue": 1, "RED": 255, "GREEN": 255, "BLUE": 0, "Count": 67 }, "geometry": { "type": "Polygon", "coordinates": [ [ [ 8.375003, 40.74201, 0.0 ], [ 8.374026, 40.742575, 0.0 ], [ 8.373872, 40.743689, 0.0 ], [ 8.371489, 40.742849, 0.0 ], [ 8.372261, 40.740981, 0.0 ], [ 8.375003, 40.74201, 0.0 ] ] ] } },
{ "type": "Feature", "properties": { "Classcode": "Farms", "Classname": "Agriculture (Annual Herbaceous)", "Classvalue": 1, "RED": 255, "GREEN": 255, "BLUE": 0, "Count": 101 }, "geometry": { "type": "Polygon", "coordinates": [ [ [ 8.377866, 40.743021, 0.0 ], [ 8.376186, 40.745592, 0.0 ], [ 8.374026, 40.744615, 0.0 ], [ 8.375346, 40.742112, 0.0 ], [ 8.377866, 40.743021, 0.0 ] ] ] } },
{ "type": "Feature", "properties": { "Classcode": "Farms", "Classname": "Agriculture (Annual Herbaceous)", "Classvalue": 1, "RED": 255, "GREEN": 255, "BLUE": 0, "Count": 29 }, "geometry": { "type": "Polygon", "coordinates": [ [ [ 8.664862, 40.754369, 0.0 ], [ 8.664718, 40.75445, 0.0 ], [ 8.664111, 40.754144, 0.0 ], [ 8.663648, 40.754315, 0.0 ], [ 8.661963, 40.753569, 0.0 ], [ 8.66306, 40.752823, 0.0 ], [ 8.663455, 40.753025, 0.0 ], [ 8.663941, 40.753272, 0.0 ], [ 8.664862, 40.754369, 0.0 ] ] ] } },
{ "type": "Feature", "properties": { "Classcode": "Farms", "Classname": "Agriculture (Annual Herbaceous)", "Classvalue": 1, "RED": 255, "GREEN": 255, "BLUE": 0, "Count": 109 }, "geometry": { "type": "Polygon", "coordinates": [ [ [ 8.719879, 39.318026, 0.0 ], [ 8.719107, 39.318089, 0.0 ], [ 8.717927, 39.318215, 0.0 ], [ 8.716481, 39.317401, 0.0 ], [ 8.717429, 39.315512, 0.0 ], [ 8.719577, 39.316671, 0.0 ], [ 8.720588, 39.315533, 0.0 ], [ 8.721452, 39.31639, 0.0 ], [ 8.719879, 39.318026, 0.0 ] ] ] } },
{ "type": "Feature", "properties": { "Classcode": "Farms", "Classname": "Agriculture (Annual Herbaceous)", "Classvalue": 1, "RED": 255, "GREEN": 255, "BLUE": 0, "Count": 68 }, "geometry": { "type": "Polygon", "coordinates": [ [ [ 8.608153, 39.044, 0.0 ], [ 8.606643, 39.045229, 0.0 ], [ 8.60467, 39.043221, 0.0 ], [ 8.60592, 39.04221, 0.0 ], [ 8.608153, 39.044, 0.0 ] ] ] } },
{ "type": "Feature", "properties": { "Classcode": "Farms", "Classname": "Agriculture (Annual Herbaceous)", "Classvalue": 1, "RED": 255, "GREEN": 255, "BLUE": 0, "Count": 83 }, "geometry": { "type": "Polygon", "coordinates": [ [ [ 8.618691, 39.044049, 0.0 ], [ 8.61339, 39.044295, 0.0 ], [ 8.613376, 39.043186, 0.0 ], [ 8.614001, 39.043326, 0.0 ], [ 8.615434, 39.043087, 0.0 ], [ 8.617224, 39.042778, 0.0 ], [ 8.618656, 39.042996, 0.0 ], [ 8.618691, 39.044049, 0.0 ] ] ] } },
{ "type": "Feature", "properties": { "Classcode": "Farms", "Classname": "Agriculture (Annual Herbaceous)", "Classvalue": 1, "RED": 255, "GREEN": 255, "BLUE": 0, "Count": 28 }, "geometry": { "type": "Polygon", "coordinates": [ [ [ 8.614191, 39.050158, 0.0 ], [ 8.613489, 39.05107, 0.0 ], [ 8.611825, 39.049905, 0.0 ], [ 8.612885, 39.049245, 0.0 ], [ 8.614191, 39.050158, 0.0 ] ] ] } },
{ "type": "Feature", "properties": { "Classcode": "Farms", "Classname": "Agriculture (Annual Herbaceous)", "Classvalue": 1, "RED": 255, "GREEN": 255, "BLUE": 0, "Count": 41 }, "geometry": { "type": "Polygon", "coordinates": [ [ [ 8.6144, 39.069229, 0.0 ], [ 8.614108, 39.06988, 0.0 ], [ 8.612939, 39.070541, 0.0 ], [ 8.611883, 39.069242, 0.0 ], [ 8.612872, 39.068393, 0.0 ], [ 8.6144, 39.069229, 0.0 ] ] ] } },
{ "type": "Feature", "properties": { "Classcode": "Farms", "Classname": "Agriculture (Annual Herbaceous)", "Classvalue": 1, "RED": 255, "GREEN": 255, "BLUE": 0, "Count": 30 }, "geometry": { "type": "Polygon", "coordinates": [ [ [ 8.613959, 39.304931, 0.0 ], [ 8.612148, 39.305907, 0.0 ], [ 8.611453, 39.304833, 0.0 ], [ 8.612752, 39.304166, 0.0 ], [ 8.613959, 39.304931, 0.0 ] ] ] } },
{ "type": "Feature", "properties": { "Classcode": "Farms", "Classname": "Agriculture (Annual Herbaceous)", "Classvalue": 1, "RED": 255, "GREEN": 255, "BLUE": 0, "Count": 120 }, "geometry": { "type": "Polygon", "coordinates": [ [ [ 8.684121, 39.917932, 0.0 ], [ 8.683518, 39.919062, 0.0 ], [ 8.678504, 39.916407, 0.0 ], [ 8.680084, 39.915003, 0.0 ], [ 8.684121, 39.917932, 0.0 ] ] ] } },
{ "type": "Feature", "properties": { "Classcode": "Farms", "Classname": "Agriculture (Annual Herbaceous)", "Classvalue": 1, "RED": 255, "GREEN": 255, "BLUE": 0, "Count": 47 }, "geometry": { "type": "Polygon", "coordinates": [ [ [ 8.675191, 39.914586, 0.0 ], [ 8.674478, 39.915453, 0.0 ], [ 8.671637, 39.913785, 0.0 ], [ 8.67246, 39.913072, 0.0 ], [ 8.675191, 39.914586, 0.0 ] ] ] } },
{ "type": "Feature", "properties": { "Classcode": "Farms", "Classname": "Agriculture (Annual Herbaceous)", "Classvalue": 1, "RED": 255, "GREEN": 255, "BLUE": 0, "Count": 124 }, "geometry": { "type": "Polygon", "coordinates": [ [ [ 8.680666, 39.90626, 0.0 ], [ 8.682662, 39.907499, 0.0 ], [ 8.678768, 39.907982, 0.0 ], [ 8.678899, 39.908662, 0.0 ], [ 8.677769, 39.908947, 0.0 ], [ 8.676683, 39.906128, 0.0 ], [ 8.678208, 39.906062, 0.0 ], [ 8.680666, 39.90626, 0.0 ] ] ] } },
{ "type": "Feature", "properties": { "Classcode": "Farms", "Classname": "Agriculture (Annual Herbaceous)", "Classvalue": 1, "RED": 255, "GREEN": 255, "BLUE": 0, "Count": 71 }, "geometry": { "type": "Polygon", "coordinates": [ [ [ 8.678164, 39.899096, 0.0 ], [ 8.675685, 39.901444, 0.0 ], [ 8.674884, 39.900917, 0.0 ], [ 8.675795, 39.90005, 0.0 ], [ 8.674763, 39.899403, 0.0 ], [ 8.676343, 39.898229, 0.0 ], [ 8.678164, 39.899096, 0.0 ] ] ] } },
{ "type": "Feature", "properties": { "Classcode": "Farms", "Classname": "Agriculture (Annual Herbaceous)", "Classvalue": 1, "RED": 255, "GREEN": 255, "BLUE": 0, "Count": 43 }, "geometry": { "type": "Polygon", "coordinates": [ [ [ 8.668861, 39.901466, 0.0 ], [ 8.667951, 39.902179, 0.0 ], [ 8.667018, 39.901751, 0.0 ], [ 8.665099, 39.900029, 0.0 ], [ 8.665033, 39.900007, 0.0 ], [ 8.66602, 39.899996, 0.0 ], [ 8.668861, 39.901466, 0.0 ] ] ] } },
{ "type": "Feature", "properties": { "Classcode": "Farms", "Classname": "Agriculture (Annual Herbaceous)", "Classvalue": 1, "RED": 255, "GREEN": 255, "BLUE": 0, "Count": 164 }, "geometry": { "type": "Polygon", "coordinates": [ [ [ 8.652582, 39.903401, 0.0 ], [ 8.653502, 39.90449, 0.0 ], [ 8.650974, 39.905423, 0.0 ], [ 8.647646, 39.902039, 0.0 ], [ 8.649079, 39.901555, 0.0 ], [ 8.651045, 39.901499, 0.0 ], [ 8.652582, 39.903401, 0.0 ] ] ] } },
{ "type": "Feature", "properties": { "Classcode": "Farms", "Classname": "Agriculture (Annual Herbaceous)", "Classvalue": 1, "RED": 255, "GREEN": 255, "BLUE": 0, "Count": 43 }, "geometry": { "type": "Polygon", "coordinates": [ [ [ 8.638308, 39.902489, 0.0 ], [ 8.639902, 39.902819, 0.0 ], [ 8.638765, 39.903759, 0.0 ], [ 8.637269, 39.903373, 0.0 ], [ 8.636413, 39.902341, 0.0 ], [ 8.637115, 39.901955, 0.0 ], [ 8.638308, 39.902489, 0.0 ] ] ] } },
{ "type": "Feature", "properties": { "Classcode": "Farms", "Classname": "Agriculture (Annual Herbaceous)", "Classvalue": 1, "RED": 255, "GREEN": 255, "BLUE": 0, "Count": 48 }, "geometry": { "type": "Polygon", "coordinates": [ [ [ 8.631516, 39.914917, 0.0 ], [ 8.631578, 39.915528, 0.0 ], [ 8.631107, 39.916306, 0.0 ], [ 8.630123, 39.915825, 0.0 ], [ 8.628927, 39.914823, 0.0 ], [ 8.630055, 39.913915, 0.0 ], [ 8.630779, 39.914472, 0.0 ], [ 8.631044, 39.914207, 0.0 ], [ 8.631516, 39.914917, 0.0 ] ] ] } },
{ "type": "Feature", "properties": { "Classcode": "Farms", "Classname": "Agriculture (Annual Herbaceous)", "Classvalue": 1, "RED": 255, "GREEN": 255, "BLUE": 0, "Count": 43 }, "geometry": { "type": "Polygon", "coordinates": [ [ [ 8.633084, 39.912266, 0.0 ], [ 8.633632, 39.913992, 0.0 ], [ 8.633502, 39.914261, 0.0 ], [ 8.631844, 39.914297, 0.0 ], [ 8.631695, 39.913596, 0.0 ], [ 8.632113, 39.912113, 0.0 ], [ 8.633084, 39.912266, 0.0 ] ] ] } },
{ "type": "Feature", "properties": { "Classcode": "Farms", "Classname": "Agriculture (Annual Herbaceous)", "Classvalue": 1, "RED": 255, "GREEN": 255, "BLUE": 0, "Count": 230 }, "geometry": { "type": "Polygon", "coordinates": [ [ [ 8.625067, 39.938633, 0.0 ], [ 8.622928, 39.941903, 0.0 ], [ 8.620295, 39.940696, 0.0 ], [ 8.619067, 39.939884, 0.0 ], [ 8.619001, 39.937251, 0.0 ], [ 8.625067, 39.938633, 0.0 ] ] ] } },
{ "type": "Feature", "properties": { "Classcode": "Farms", "Classname": "Agriculture (Annual Herbaceous)", "Classvalue": 1, "RED": 255, "GREEN": 255, "BLUE": 0, "Count": 219 }, "geometry": { "type": "Polygon", "coordinates": [ [ [ 8.557666, 39.968701, 0.0 ], [ 8.559679, 39.970323, 0.0 ], [ 8.557252, 39.972383, 0.0 ], [ 8.553364, 39.970381, 0.0 ], [ 8.555998, 39.967344, 0.0 ], [ 8.557666, 39.968701, 0.0 ] ] ] } },
{ "type": "Feature", "properties": { "Classcode": "Farms", "Classname": "Agriculture (Annual Herbaceous)", "Classvalue": 1, "RED": 255, "GREEN": 255, "BLUE": 0, "Count": 12 }, "geometry": { "type": "Polygon", "coordinates": [ [ [ 8.670748, 39.745992, 0.0 ], [ 8.670454, 39.746492, 0.0 ], [ 8.669018, 39.746058, 0.0 ], [ 8.669312, 39.745528, 0.0 ], [ 8.670748, 39.745992, 0.0 ] ] ] } },
{ "type": "Feature", "properties": { "Classcode": "Farms", "Classname": "Agriculture (Annual Herbaceous)", "Classvalue": 1, "RED": 255, "GREEN": 255, "BLUE": 0, "Count": 39 }, "geometry": { "type": "Polygon", "coordinates": [ [ [ 8.663656, 39.858909, 0.0 ], [ 8.662782, 39.859576, 0.0 ], [ 8.660562, 39.857896, 0.0 ], [ 8.661367, 39.857278, 0.0 ], [ 8.663656, 39.858909, 0.0 ] ] ] } },
{ "type": "Feature", "properties": { "Classcode": "Farms", "Classname": "Agriculture (Annual Herbaceous)", "Classvalue": 1, "RED": 255, "GREEN": 255, "BLUE": 0, "Count": 43 }, "geometry": { "type": "Polygon", "coordinates": [ [ [ 8.664862, 39.85795, 0.0 ], [ 8.663949, 39.858662, 0.0 ], [ 8.661696, 39.857019, 0.0 ], [ 8.662592, 39.856283, 0.0 ], [ 8.664862, 39.85795, 0.0 ] ] ] } },
{ "type": "Feature", "properties": { "Classcode": "Farms", "Classname": "Agriculture (Annual Herbaceous)", "Classvalue": 1, "RED": 255, "GREEN": 255, "BLUE": 0, "Count": 67 }, "geometry": { "type": "Polygon", "coordinates": [ [ [ 8.670443, 39.866076, 0.0 ], [ 8.668874, 39.867197, 0.0 ], [ 8.666626, 39.865605, 0.0 ], [ 8.668233, 39.864554, 0.0 ], [ 8.670443, 39.866076, 0.0 ] ] ] } },
{ "type": "Feature", "properties": { "Classcode": "Farms", "Classname": "Agriculture (Annual Herbaceous)", "Classvalue": 1, "RED": 255, "GREEN": 255, "BLUE": 0, "Count": 26 }, "geometry": { "type": "Polygon", "coordinates": [ [ [ 8.666456, 39.872665, 0.0 ], [ 8.66466, 39.873313, 0.0 ], [ 8.664144, 39.872414, 0.0 ], [ 8.665514, 39.871715, 0.0 ], [ 8.666456, 39.872665, 0.0 ] ] ] } },
{ "type": "Feature", "properties": { "Classcode": "Farms", "Classname": "Agriculture (Annual Herbaceous)", "Classvalue": 1, "RED": 255, "GREEN": 255, "BLUE": 0, "Count": 77 }, "geometry": { "type": "Polygon", "coordinates": [ [ [ 8.557883, 39.06942, 0.0 ], [ 8.558684, 39.069962, 0.0 ], [ 8.558637, 39.070753, 0.0 ], [ 8.558354, 39.071026, 0.0 ], [ 8.557996, 39.071455, 0.0 ], [ 8.555372, 39.069853, 0.0 ], [ 8.555928, 39.068722, 0.0 ], [ 8.556333, 39.068595, 0.0 ], [ 8.556997, 39.068331, 0.0 ], [ 8.557883, 39.06942, 0.0 ] ] ] } },
{ "type": "Feature", "properties": { "Classcode": "Farms", "Classname": "Agriculture (Annual Herbaceous)", "Classvalue": 1, "RED": 255, "GREEN": 255, "BLUE": 0, "Count": 62 }, "geometry": { "type": "Polygon", "coordinates": [ [ [ 8.557346, 39.071356, 0.0 ], [ 8.556795, 39.071945, 0.0 ], [ 8.557294, 39.072374, 0.0 ], [ 8.557092, 39.072459, 0.0 ], [ 8.555428, 39.073081, 0.0 ], [ 8.555066, 39.071992, 0.0 ], [ 8.554698, 39.071484, 0.0 ], [ 8.555264, 39.070084, 0.0 ], [ 8.557346, 39.071356, 0.0 ] ] ] } },
{ "type": "Feature", "properties": { "Classcode": "Farms", "Classname": "Agriculture (Annual Herbaceous)", "Classvalue": 1, "RED": 255, "GREEN": 255, "BLUE": 0, "Count": 67 }, "geometry": { "type": "Polygon", "coordinates": [ [ [ 9.001711, 39.105618, 0.0 ], [ 9.001416, 39.106701, 0.0 ], [ 8.999765, 39.105634, 0.0 ], [ 9.000724, 39.103726, 0.0 ], [ 9.002697, 39.103441, 0.0 ], [ 9.001711, 39.105618, 0.0 ] ] ] } },
{ "type": "Feature", "properties": { "Classcode": "Farms", "Classname": "Agriculture (Annual Herbaceous)", "Classvalue": 1, "RED": 255, "GREEN": 255, "BLUE": 0, "Count": 43 }, "geometry": { "type": "Polygon", "coordinates": [ [ [ 8.557422, 39.779708, 0.0 ], [ 8.55738, 39.782995, 0.0 ], [ 8.556409, 39.782973, 0.0 ], [ 8.556479, 39.779682, 0.0 ], [ 8.557422, 39.779708, 0.0 ] ] ] } },
{ "type": "Feature", "properties": { "Classcode": "Farms", "Classname": "Agriculture (Annual Herbaceous)", "Classvalue": 1, "RED": 255, "GREEN": 255, "BLUE": 0, "Count": 40 }, "geometry": { "type": "Polygon", "coordinates": [ [ [ 8.556058, 39.802217, 0.0 ], [ 8.555974, 39.805425, 0.0 ], [ 8.555078, 39.805333, 0.0 ], [ 8.555111, 39.80215, 0.0 ], [ 8.556058, 39.802217, 0.0 ] ] ] } },
{ "type": "Feature", "properties": { "Classcode": "Farms", "Classname": "Agriculture (Annual Herbaceous)", "Classvalue": 1, "RED": 255, "GREEN": 255, "BLUE": 0, "Count": 31 }, "geometry": { "type": "Polygon", "coordinates": [ [ [ 8.605589, 39.837164, 0.0 ], [ 8.604745, 39.837428, 0.0 ], [ 8.603791, 39.838046, 0.0 ], [ 8.602632, 39.837455, 0.0 ], [ 8.603503, 39.836454, 0.0 ], [ 8.605589, 39.837164, 0.0 ] ] ] } },
{ "type": "Feature", "properties": { "Classcode": "Trees", "Classname": "Forest and Orchards", "Classvalue": 2, "RED": 56, "GREEN": 168, "BLUE": 0, "Count": 286 }, "geometry": { "type": "Polygon", "coordinates": [ [ [ 8.736912, 39.796721, 0.0 ], [ 8.729052, 39.797073, 0.0 ], [ 8.727326, 39.795124, 0.0 ], [ 8.735954, 39.793878, 0.0 ], [ 8.736912, 39.796721, 0.0 ] ] ] } },
{ "type": "Feature", "properties": { "Classcode": "Trees", "Classname": "Forest and Orchards", "Classvalue": 2, "RED": 56, "GREEN": 168, "BLUE": 0, "Count": 202 }, "geometry": { "type": "Polygon", "coordinates": [ [ [ 8.585007, 39.410228, 0.0 ], [ 8.575988, 39.411742, 0.0 ], [ 8.575866, 39.409574, 0.0 ], [ 8.581428, 39.40892, 0.0 ], [ 8.585007, 39.410228, 0.0 ] ] ] } },
{ "type": "Feature", "properties": { "Classcode": "Trees", "Classname": "Forest and Orchards", "Classvalue": 2, "RED": 56, "GREEN": 168, "BLUE": 0, "Count": 1019 }, "geometry": { "type": "Polygon", "coordinates": [ [ [ 8.609317, 39.398535, 0.0 ], [ 8.599443, 39.39868, 0.0 ], [ 8.587161, 39.401426, 0.0 ], [ 8.586912, 39.398081, 0.0 ], [ 8.601391, 39.393987, 0.0 ], [ 8.601291, 39.393887, 0.0 ], [ 8.609317, 39.398535, 0.0 ] ] ] } },
{ "type": "Feature", "properties": { "Classcode": "Trees", "Classname": "Forest and Orchards", "Classvalue": 2, "RED": 56, "GREEN": 168, "BLUE": 0, "Count": 1046 }, "geometry": { "type": "Polygon", "coordinates": [ [ [ 8.490383, 39.328345, 0.0 ], [ 8.485209, 39.332906, 0.0 ], [ 8.475822, 39.327895, 0.0 ], [ 8.483573, 39.322415, 0.0 ], [ 8.490383, 39.328345, 0.0 ] ] ] } },
{ "type": "Feature", "properties": { "Classcode": "Trees", "Classname": "Forest and Orchards", "Classvalue": 2, "RED": 56, "GREEN": 168, "BLUE": 0, "Count": 29 }, "geometry": { "type": "Polygon", "coordinates": [ [ [ 8.899581, 39.399315, 0.0 ], [ 8.898593, 39.400584, 0.0 ], [ 8.89724, 39.399882, 0.0 ], [ 8.897971, 39.398907, 0.0 ], [ 8.899581, 39.399315, 0.0 ] ] ] } },
{ "type": "Feature", "properties": { "Classcode": "Trees", "Classname": "Forest and Orchards", "Classvalue": 2, "RED": 56, "GREEN": 168, "BLUE": 0, "Count": 5 }, "geometry": { "type": "Polygon", "coordinates": [ [ [ 8.89753, 39.398178, 0.0 ], [ 8.897892, 39.39874, 0.0 ], [ 8.897227, 39.398801, 0.0 ], [ 8.896838, 39.398175, 0.0 ], [ 8.89753, 39.398178, 0.0 ] ] ] } },
{ "type": "Feature", "properties": { "Classcode": "Trees", "Classname": "Forest and Orchards", "Classvalue": 2, "RED": 56, "GREEN": 168, "BLUE": 0, "Count": 17 }, "geometry": { "type": "Polygon", "coordinates": [ [ [ 8.89641, 39.400468, 0.0 ], [ 8.895736, 39.401298, 0.0 ], [ 8.894611, 39.400734, 0.0 ], [ 8.895319, 39.39993, 0.0 ], [ 8.89641, 39.400468, 0.0 ] ] ] } },
{ "type": "Feature", "properties": { "Classcode": "Trees", "Classname": "Forest and Orchards", "Classvalue": 2, "RED": 56, "GREEN": 168, "BLUE": 0, "Count": 7 }, "geometry": { "type": "Polygon", "coordinates": [ [ [ 8.894032, 39.402905, 0.0 ], [ 8.893562, 39.403461, 0.0 ], [ 8.893186, 39.403292, 0.0 ], [ 8.893424, 39.40305, 0.0 ], [ 8.892774, 39.402701, 0.0 ], [ 8.893059, 39.402387, 0.0 ], [ 8.894032, 39.402905, 0.0 ] ] ] } },
{ "type": "Feature", "properties": { "Classcode": "Trees", "Classname": "Forest and Orchards", "Classvalue": 2, "RED": 56, "GREEN": 168, "BLUE": 0, "Count": 4 }, "geometry": { "type": "Polygon", "coordinates": [ [ [ 8.89273, 39.402547, 0.0 ], [ 8.892468, 39.402872, 0.0 ], [ 8.891812, 39.402525, 0.0 ], [ 8.892099, 39.402229, 0.0 ], [ 8.89273, 39.402547, 0.0 ] ] ] } },
{ "type": "Feature", "properties": { "Classcode": "Trees", "Classname": "Forest and Orchards", "Classvalue": 2, "RED": 56, "GREEN": 168, "BLUE": 0, "Count": 3 }, "geometry": { "type": "Polygon", "coordinates": [ [ [ 8.891577, 39.40197, 0.0 ], [ 8.891985, 39.402203, 0.0 ], [ 8.891788, 39.402446, 0.0 ], [ 8.891111, 39.402157, 0.0 ], [ 8.891381, 39.40184, 0.0 ], [ 8.891384, 39.401836, 0.0 ], [ 8.891577, 39.40197, 0.0 ] ] ] } },
{ "type": "Feature", "properties": { "Classcode": "Trees", "Classname": "Forest and Orchards", "Classvalue": 2, "RED": 56, "GREEN": 168, "BLUE": 0, "Count": 5 }, "geometry": { "type": "Polygon", "coordinates": [ [ [ 8.895602, 39.4041, 0.0 ], [ 8.89534, 39.404471, 0.0 ], [ 8.894491, 39.403975, 0.0 ], [ 8.894816, 39.403647, 0.0 ], [ 8.895602, 39.4041, 0.0 ] ] ] } },
{ "type": "Feature", "properties": { "Classcode": "Trees", "Classname": "Forest and Orchards", "Classvalue": 2, "RED": 56, "GREEN": 168, "BLUE": 0, "Count": 134 }, "geometry": { "type": "Polygon", "coordinates": [ [ [ 8.840003, 39.051508, 0.0 ], [ 8.836526, 39.052531, 0.0 ], [ 8.834011, 39.049259, 0.0 ], [ 8.835401, 39.049709, 0.0 ], [ 8.836792, 39.049075, 0.0 ], [ 8.836792, 39.049136, 0.0 ], [ 8.840003, 39.051508, 0.0 ] ] ] } },
{ "type": "Feature", "properties": { "Classcode": "Trees", "Classname": "Forest and Orchards", "Classvalue": 2, "RED": 56, "GREEN": 168, "BLUE": 0, "Count": 5 }, "geometry": { "type": "Polygon", "coordinates": [ [ [ 8.640534, 40.04711, 0.0 ], [ 8.640431, 40.047241, 0.0 ], [ 8.640184, 40.047038, 0.0 ], [ 8.640019, 40.047158, 0.0 ], [ 8.638851, 40.046493, 0.0 ], [ 8.639021, 40.046338, 0.0 ], [ 8.640534, 40.04711, 0.0 ] ] ] } },
{ "type": "Feature", "properties": { "Classcode": "Trees", "Classname": "Forest and Orchards", "Classvalue": 2, "RED": 56, "GREEN": 168, "BLUE": 0, "Count": 4 }, "geometry": { "type": "Polygon", "coordinates": [ [ [ 8.638005, 40.047361, 0.0 ], [ 8.637774, 40.047662, 0.0 ], [ 8.636994, 40.047491, 0.0 ], [ 8.637177, 40.047159, 0.0 ], [ 8.638005, 40.047361, 0.0 ] ] ] } },
{ "type": "Feature", "properties": { "Classcode": "Trees", "Classname": "Forest and Orchards", "Classvalue": 2, "RED": 56, "GREEN": 168, "BLUE": 0, "Count": 6 }, "geometry": { "type": "Polygon", "coordinates": [ [ [ 8.637032, 40.046764, 0.0 ], [ 8.638114, 40.047048, 0.0 ], [ 8.637998, 40.047308, 0.0 ], [ 8.636275, 40.046885, 0.0 ], [ 8.636419, 40.046687, 0.0 ], [ 8.637032, 40.046764, 0.0 ] ] ] } },
{ "type": "Feature", "properties": { "Classcode": "Trees", "Classname": "Forest and Orchards", "Classvalue": 2, "RED": 56, "GREEN": 168, "BLUE": 0, "Count": 2 }, "geometry": { "type": "Polygon", "coordinates": [ [ [ 8.63656, 40.047032, 0.0 ], [ 8.636242, 40.047453, 0.0 ], [ 8.63595, 40.047403, 0.0 ], [ 8.636062, 40.04695, 0.0 ], [ 8.63656, 40.047032, 0.0 ] ] ] } },
{ "type": "Feature", "properties": { "Classcode": "Trees", "Classname": "Forest and Orchards", "Classvalue": 2, "RED": 56, "GREEN": 168, "BLUE": 0, "Count": 1 }, "geometry": { "type": "Polygon", "coordinates": [ [ [ 8.63673, 40.046324, 0.0 ], [ 8.636593, 40.046415, 0.0 ], [ 8.636486, 40.046461, 0.0 ], [ 8.636486, 40.046465, 0.0 ], [ 8.63617, 40.046136, 0.0 ], [ 8.636446, 40.045991, 0.0 ], [ 8.63673, 40.046324, 0.0 ] ] ] } },
{ "type": "Feature", "properties": { "Classcode": "Trees", "Classname": "Forest and Orchards", "Classvalue": 2, "RED": 56, "GREEN": 168, "BLUE": 0, "Count": 6 }, "geometry": { "type": "Polygon", "coordinates": [ [ [ 8.640906, 40.046873, 0.0 ], [ 8.640697, 40.047049, 0.0 ], [ 8.638958, 40.046153, 0.0 ], [ 8.639081, 40.045986, 0.0 ], [ 8.640906, 40.046873, 0.0 ] ] ] } },
{ "type": "Feature", "properties": { "Classcode": "Trees", "Classname": "Forest and Orchards", "Classvalue": 2, "RED": 56, "GREEN": 168, "BLUE": 0, "Count": 8 }, "geometry": { "type": "Polygon", "coordinates": [ [ [ 8.64326, 40.049001, 0.0 ], [ 8.643914, 40.04919, 0.0 ], [ 8.643723, 40.04948, 0.0 ], [ 8.642011, 40.048663, 0.0 ], [ 8.642188, 40.048274, 0.0 ], [ 8.64326, 40.049001, 0.0 ] ] ] } },
{ "type": "Feature", "properties": { "Classcode": "Trees", "Classname": "Forest and Orchards", "Classvalue": 2, "RED": 56, "GREEN": 168, "BLUE": 0, "Count": 111 }, "geometry": { "type": "Polygon", "coordinates": [ [ [ 9.236537, 39.983191, 0.0 ], [ 9.234619, 39.983233, 0.0 ], [ 9.232299, 39.980527, 0.0 ], [ 9.236093, 39.980351, 0.0 ], [ 9.236537, 39.983191, 0.0 ] ] ] } },
{ "type": "Feature", "properties": { "Classcode": "Trees", "Classname": "Forest and Orchards", "Classvalue": 2, "RED": 56, "GREEN": 168, "BLUE": 0, "Count": 103 }, "geometry": { "type": "Polygon", "coordinates": [ [ [ 9.219416, 39.981809, 0.0 ], [ 9.216936, 39.981834, 0.0 ], [ 9.21609, 39.978383, 0.0 ], [ 9.217506, 39.97788, 0.0 ], [ 9.219416, 39.981809, 0.0 ] ] ] } },
{ "type": "Feature", "properties": { "Classcode": "Trees", "Classname": "Forest and Orchards", "Classvalue": 2, "RED": 56, "GREEN": 168, "BLUE": 0, "Count": 55 }, "geometry": { "type": "Polygon", "coordinates": [ [ [ 9.212316, 39.974028, 0.0 ], [ 9.211949, 39.975494, 0.0 ], [ 9.209044, 39.973884, 0.0 ], [ 9.210994, 39.972981, 0.0 ], [ 9.212316, 39.974028, 0.0 ] ] ] } },
{ "type": "Feature", "properties": { "Classcode": "Trees", "Classname": "Forest and Orchards", "Classvalue": 2, "RED": 56, "GREEN": 168, "BLUE": 0, "Count": 27 }, "geometry": { "type": "Polygon", "coordinates": [ [ [ 9.223424, 39.966883, 0.0 ], [ 9.222398, 39.966911, 0.0 ], [ 9.221417, 39.965874, 0.0 ], [ 9.22282, 39.96514, 0.0 ], [ 9.223424, 39.966883, 0.0 ] ] ] } },
{ "type": "Feature", "properties": { "Classcode": "Trees", "Classname": "Forest and Orchards", "Classvalue": 2, "RED": 56, "GREEN": 168, "BLUE": 0, "Count": 77 }, "geometry": { "type": "Polygon", "coordinates": [ [ [ 9.412212, 40.159763, 0.0 ], [ 9.415183, 40.161871, 0.0 ], [ 9.412605, 40.162486, 0.0 ], [ 9.41072, 40.159646, 0.0 ], [ 9.412212, 40.159763, 0.0 ] ] ] } },
{ "type": "Feature", "properties": { "Classcode": "Trees", "Classname": "Forest and Orchards", "Classvalue": 2, "RED": 56, "GREEN": 168, "BLUE": 0, "Count": 128 }, "geometry": { "type": "Polygon", "coordinates": [ [ [ 9.378879, 40.333076, 0.0 ], [ 9.376701, 40.335933, 0.0 ], [ 9.375067, 40.333411, 0.0 ], [ 9.376399, 40.331074, 0.0 ], [ 9.378879, 40.333076, 0.0 ] ] ] } },
{ "type": "Feature", "properties": { "Classcode": "Trees", "Classname": "Forest and Orchards", "Classvalue": 2, "RED": 56, "GREEN": 168, "BLUE": 0, "Count": 295 }, "geometry": { "type": "Polygon", "coordinates": [ [ [ 9.049442, 40.83435, 0.0 ], [ 9.054884, 40.838594, 0.0 ], [ 9.05089, 40.839643, 0.0 ], [ 9.045348, 40.833352, 0.0 ], [ 9.049442, 40.83435, 0.0 ] ] ] } },
{ "type": "Feature", "properties": { "Classcode": "Trees", "Classname": "Forest and Orchards", "Classvalue": 2, "RED": 56, "GREEN": 168, "BLUE": 0, "Count": 184 }, "geometry": { "type": "Polygon", "coordinates": [ [ [ 9.038046, 40.859932, 0.0 ], [ 9.034852, 40.860704, 0.0 ], [ 9.031829, 40.857079, 0.0 ], [ 9.035507, 40.856699, 0.0 ], [ 9.038046, 40.859932, 0.0 ] ] ] } },
{ "type": "Feature", "properties": { "Classcode": "Trees", "Classname": "Forest and Orchards", "Classvalue": 2, "RED": 56, "GREEN": 168, "BLUE": 0, "Count": 226 }, "geometry": { "type": "Polygon", "coordinates": [ [ [ 9.410812, 39.28416, 0.0 ], [ 9.407605, 39.285757, 0.0 ], [ 9.406532, 39.281477, 0.0 ], [ 9.411178, 39.280325, 0.0 ], [ 9.410812, 39.28416, 0.0 ] ] ] } },
{ "type": "Feature", "properties": { "Classcode": "Trees", "Classname": "Forest and Orchards", "Classvalue": 2, "RED": 56, "GREEN": 168, "BLUE": 0, "Count": 492 }, "geometry": { "type": "Polygon", "coordinates": [ [ [ 9.308916, 40.725658, 0.0 ], [ 9.300778, 40.727206, 0.0 ], [ 9.297532, 40.722063, 0.0 ], [ 9.302974, 40.721614, 0.0 ], [ 9.308916, 40.725658, 0.0 ] ] ] } },
{ "type": "Feature", "properties": { "Classcode": "Trees", "Classname": "Forest and Orchards", "Classvalue": 2, "RED": 56, "GREEN": 168, "BLUE": 0, "Count": 89 }, "geometry": { "type": "Polygon", "coordinates": [ [ [ 9.257804, 40.690013, 0.0 ], [ 9.2549, 40.689256, 0.0 ], [ 9.253182, 40.687211, 0.0 ], [ 9.255718, 40.686925, 0.0 ], [ 9.257804, 40.690013, 0.0 ] ] ] } },
{ "type": "Feature", "properties": { "Classcode": "Trees", "Classname": "Forest and Orchards", "Classvalue": 2, "RED": 56, "GREEN": 168, "BLUE": 0, "Count": 12 }, "geometry": { "type": "Polygon", "coordinates": [ [ [ 9.262124, 40.695218, 0.0 ], [ 9.261438, 40.69562, 0.0 ], [ 9.260317, 40.695047, 0.0 ], [ 9.260912, 40.694548, 0.0 ], [ 9.262124, 40.695218, 0.0 ] ] ] } },
{ "type": "Feature", "properties": { "Classcode": "Trees", "Classname": "Forest and Orchards", "Classvalue": 2, "RED": 56, "GREEN": 168, "BLUE": 0, "Count": 198 }, "geometry": { "type": "Polygon", "coordinates": [ [ [ 9.247903, 40.718487, 0.0 ], [ 9.243898, 40.717768, 0.0 ], [ 9.242968, 40.714443, 0.0 ], [ 9.245887, 40.713566, 0.0 ], [ 9.247903, 40.718487, 0.0 ] ] ] } },
{ "type": "Feature", "properties": { "Classcode": "Trees", "Classname": "Forest and Orchards", "Classvalue": 2, "RED": 56, "GREEN": 168, "BLUE": 0, "Count": 1001 }, "geometry": { "type": "Polygon", "coordinates": [ [ [ 8.869361, 39.093005, 0.0 ], [ 8.864408, 39.095497, 0.0 ], [ 8.852169, 39.093612, 0.0 ], [ 8.853799, 39.087413, 0.0 ], [ 8.869361, 39.093005, 0.0 ] ] ] } },
{ "type": "Feature", "properties": { "Classcode": "Trees", "Classname": "Forest and Orchards", "Classvalue": 2, "RED": 56, "GREEN": 168, "BLUE": 0, "Count": 1109 }, "geometry": { "type": "Polygon", "coordinates": [ [ [ 8.7331, 39.789264, 0.0 ], [ 8.720169, 39.794057, 0.0 ], [ 8.718671, 39.788715, 0.0 ], [ 8.730254, 39.783273, 0.0 ], [ 8.7331, 39.789264, 0.0 ] ] ] } },
{ "type": "Feature", "properties": { "Classcode": "Trees", "Classname": "Forest and Orchards", "Classvalue": 2, "RED": 56, "GREEN": 168, "BLUE": 0, "Count": 410 }, "geometry": { "type": "Polygon", "coordinates": [ [ [ 8.844139, 39.931009, 0.0 ], [ 8.835851, 39.928662, 0.0 ], [ 8.835502, 39.925567, 0.0 ], [ 8.839346, 39.923969, 0.0 ], [ 8.844139, 39.931009, 0.0 ] ] ] } },
{ "type": "Feature", "properties": { "Classcode": "Trees", "Classname": "Forest and Orchards", "Classvalue": 2, "RED": 56, "GREEN": 168, "BLUE": 0, "Count": 157 }, "geometry": { "type": "Polygon", "coordinates": [ [ [ 9.428551, 39.404681, 0.0 ], [ 9.424237, 39.40449, 0.0 ], [ 9.424588, 39.402349, 0.0 ], [ 9.426601, 39.400112, 0.0 ], [ 9.428551, 39.404681, 0.0 ] ] ] } },
{ "type": "Feature", "properties": { "Classcode": "Trees", "Classname": "Forest and Orchards", "Classvalue": 2, "RED": 56, "GREEN": 168, "BLUE": 0, "Count": 1874 }, "geometry": { "type": "Polygon", "coordinates": [ [ [ 9.486099, 39.232419, 0.0 ], [ 9.479389, 39.240311, 0.0 ], [ 9.467215, 39.237947, 0.0 ], [ 9.474788, 39.227242, 0.0 ], [ 9.486099, 39.232419, 0.0 ] ] ] } },
{ "type": "Feature", "properties": { "Classcode": "Trees", "Classname": "Forest and Orchards", "Classvalue": 2, "RED": 56, "GREEN": 168, "BLUE": 0, "Count": 1942 }, "geometry": { "type": "Polygon", "coordinates": [ [ [ 8.838248, 39.127423, 0.0 ], [ 8.828562, 39.126924, 0.0 ], [ 8.826065, 39.120134, 0.0 ], [ 8.831907, 39.114641, 0.0 ], [ 8.840045, 39.116938, 0.0 ], [ 8.841044, 39.121831, 0.0 ], [ 8.840944, 39.121831, 0.0 ], [ 8.838248, 39.127423, 0.0 ] ] ] } },
{ "type": "Feature", "properties": { "Classcode": "Trees", "Classname": "Forest and Orchards", "Classvalue": 2, "RED": 56, "GREEN": 168, "BLUE": 0, "Count": 538 }, "geometry": { "type": "Polygon", "coordinates": [ [ [ 8.85742, 39.13616, 0.0 ], [ 8.851478, 39.134762, 0.0 ], [ 8.85068, 39.12917, 0.0 ], [ 8.856321, 39.128172, 0.0 ], [ 8.85742, 39.13616, 0.0 ] ] ] } },
{ "type": "Feature", "properties": { "Classcode": "Trees", "Classname": "Forest and Orchards", "Classvalue": 2, "RED": 56, "GREEN": 168, "BLUE": 0, "Count": 23 }, "geometry": { "type": "Polygon", "coordinates": [ [ [ 8.944006, 39.960801, 0.0 ], [ 8.943135, 39.960977, 0.0 ], [ 8.942682, 39.959829, 0.0 ], [ 8.944433, 39.959343, 0.0 ], [ 8.944006, 39.960801, 0.0 ] ] ] } },
{ "type": "Feature", "properties": { "Classcode": "Trees", "Classname": "Forest and Orchards", "Classvalue": 2, "RED": 56, "GREEN": 168, "BLUE": 0, "Count": 51 }, "geometry": { "type": "Polygon", "coordinates": [ [ [ 8.938787, 39.962007, 0.0 ], [ 8.93867, 39.962979, 0.0 ], [ 8.934959, 39.962124, 0.0 ], [ 8.935152, 39.961127, 0.0 ], [ 8.938787, 39.962007, 0.0 ] ] ] } },
{ "type": "Feature", "properties": { "Classcode": "Trees", "Classname": "Forest and Orchards", "Classvalue": 2, "RED": 56, "GREEN": 168, "BLUE": 0, "Count": 43 }, "geometry": { "type": "Polygon", "coordinates": [ [ [ 8.928065, 39.965801, 0.0 ], [ 8.924891, 39.966455, 0.0 ], [ 8.926181, 39.965056, 0.0 ], [ 8.929121, 39.96478, 0.0 ], [ 8.928065, 39.965801, 0.0 ] ] ] } },
{ "type": "Feature", "properties": { "Classcode": "Trees", "Classname": "Forest and Orchards", "Classvalue": 2, "RED": 56, "GREEN": 168, "BLUE": 0, "Count": 20 }, "geometry": { "type": "Polygon", "coordinates": [ [ [ 8.932262, 39.967435, 0.0 ], [ 8.93341, 39.968641, 0.0 ], [ 8.93511, 39.969847, 0.0 ], [ 8.931944, 39.96808, 0.0 ], [ 8.930754, 39.967024, 0.0 ], [ 8.932262, 39.967435, 0.0 ] ] ] } },
{ "type": "Feature", "properties": { "Classcode": "Trees", "Classname": "Forest and Orchards", "Classvalue": 2, "RED": 56, "GREEN": 168, "BLUE": 0, "Count": 30 }, "geometry": { "type": "Polygon", "coordinates": [ [ [ 8.943492, 39.982889, 0.0 ], [ 8.944377, 39.984048, 0.0 ], [ 8.944415, 39.985184, 0.0 ], [ 8.942541, 39.983884, 0.0 ], [ 8.943183, 39.983187, 0.0 ], [ 8.94237, 39.982762, 0.0 ], [ 8.943492, 39.982889, 0.0 ] ] ] } },
{ "type": "Feature", "properties": { "Classcode": "Trees", "Classname": "Forest and Orchards", "Classvalue": 2, "RED": 56, "GREEN": 168, "BLUE": 0, "Count": 9 }, "geometry": { "type": "Polygon", "coordinates": [ [ [ 8.351683, 40.525727, 0.0 ], [ 8.350783, 40.526336, 0.0 ], [ 8.350328, 40.525932, 0.0 ], [ 8.351226, 40.525207, 0.0 ], [ 8.351683, 40.525727, 0.0 ] ] ] } },
{ "type": "Feature", "properties": { "Classcode": "Trees", "Classname": "Forest and Orchards", "Classvalue": 2, "RED": 56, "GREEN": 168, "BLUE": 0, "Count": 5 }, "geometry": { "type": "Polygon", "coordinates": [ [ [ 8.352366, 40.527041, 0.0 ], [ 8.351854, 40.527326, 0.0 ], [ 8.351285, 40.526836, 0.0 ], [ 8.351766, 40.526546, 0.0 ], [ 8.352366, 40.527041, 0.0 ] ] ] } },
{ "type": "Feature", "properties": { "Classcode": "Trees", "Classname": "Forest and Orchards", "Classvalue": 2, "RED": 56, "GREEN": 168, "BLUE": 0, "Count": 7 }, "geometry": { "type": "Polygon", "coordinates": [ [ [ 8.346638, 40.525816, 0.0 ], [ 8.34574, 40.526183, 0.0 ], [ 8.345374, 40.525621, 0.0 ], [ 8.346331, 40.525369, 0.0 ], [ 8.346638, 40.525816, 0.0 ] ] ] } },
{ "type": "Feature", "properties": { "Classcode": "Trees", "Classname": "Forest and Orchards", "Classvalue": 2, "RED": 56, "GREEN": 168, "BLUE": 0, "Count": 4 }, "geometry": { "type": "Polygon", "coordinates": [ [ [ 8.335633, 40.523064, 0.0 ], [ 8.335269, 40.523208, 0.0 ], [ 8.334956, 40.523319, 0.0 ], [ 8.334703, 40.522872, 0.0 ], [ 8.335133, 40.522611, 0.0 ], [ 8.335633, 40.523064, 0.0 ] ] ] } },
{ "type": "Feature", "properties": { "Classcode": "Trees", "Classname": "Forest and Orchards", "Classvalue": 2, "RED": 56, "GREEN": 168, "BLUE": 0, "Count": 57 }, "geometry": { "type": "Polygon", "coordinates": [ [ [ 8.333655, 40.532347, 0.0 ], [ 8.333257, 40.533829, 0.0 ], [ 8.330872, 40.533534, 0.0 ], [ 8.330659, 40.531932, 0.0 ], [ 8.333655, 40.532347, 0.0 ] ] ] } },
{ "type": "Feature", "properties": { "Classcode": "Trees", "Classname": "Forest and Orchards", "Classvalue": 2, "RED": 56, "GREEN": 168, "BLUE": 0, "Count": 26 }, "geometry": { "type": "Polygon", "coordinates": [ [ [ 8.330687, 40.536507, 0.0 ], [ 8.328842, 40.536936, 0.0 ], [ 8.328446, 40.536025, 0.0 ], [ 8.330285, 40.535526, 0.0 ], [ 8.330687, 40.536507, 0.0 ] ] ] } },
{ "type": "Feature", "properties": { "Classcode": "Urban", "Classname": "Urban and Developed", "Classvalue": 3, "RED": 138, "GREEN": 14, "BLUE": 123, "Count": 8 }, "geometry": { "type": "Polygon", "coordinates": [ [ [ 9.126186, 39.219181, 0.0 ], [ 9.12637, 39.219566, 0.0 ], [ 9.125273, 39.219382, 0.0 ], [ 9.12539, 39.218385, 0.0 ], [ 9.126186, 39.219181, 0.0 ] ] ] } },
{ "type": "Feature", "properties": { "Classcode": "Urban", "Classname": "Urban and Developed", "Classvalue": 3, "RED": 138, "GREEN": 14, "BLUE": 123, "Count": 7 }, "geometry": { "type": "Polygon", "coordinates": [ [ [ 9.12276, 39.218603, 0.0 ], [ 9.122106, 39.218712, 0.0 ], [ 9.121713, 39.217983, 0.0 ], [ 9.122249, 39.217774, 0.0 ], [ 9.12276, 39.218603, 0.0 ] ] ] } },
{ "type": "Feature", "properties": { "Classcode": "Urban", "Classname": "Urban and Developed", "Classvalue": 3, "RED": 138, "GREEN": 14, "BLUE": 123, "Count": 18 }, "geometry": { "type": "Polygon", "coordinates": [ [ [ 9.113004, 39.219988, 0.0 ], [ 9.11236, 39.22024, 0.0 ], [ 9.111647, 39.218316, 0.0 ], [ 9.112371, 39.2183, 0.0 ], [ 9.113004, 39.219988, 0.0 ] ] ] } },
{ "type": "Feature", "properties": { "Classcode": "Urban", "Classname": "Urban and Developed", "Classvalue": 3, "RED": 138, "GREEN": 14, "BLUE": 123, "Count": 32 }, "geometry": { "type": "Polygon", "coordinates": [ [ [ 9.077952, 39.258795, 0.0 ], [ 9.076277, 39.259096, 0.0 ], [ 9.075622, 39.258258, 0.0 ], [ 9.077297, 39.257329, 0.0 ], [ 9.077952, 39.258795, 0.0 ] ] ] } },
{ "type": "Feature", "properties": { "Classcode": "Urban", "Classname": "Urban and Developed", "Classvalue": 3, "RED": 138, "GREEN": 14, "BLUE": 123, "Count": 27 }, "geometry": { "type": "Polygon", "coordinates": [ [ [ 9.079837, 39.261164, 0.0 ], [ 9.077533, 39.260981, 0.0 ], [ 9.077337, 39.260196, 0.0 ], [ 9.07824, 39.259672, 0.0 ], [ 9.079837, 39.261164, 0.0 ] ] ] } },
{ "type": "Feature", "properties": { "Classcode": "Urban", "Classname": "Urban and Developed", "Classvalue": 3, "RED": 138, "GREEN": 14, "BLUE": 123, "Count": 40 }, "geometry": { "type": "Polygon", "coordinates": [ [ [ 9.077585, 39.265431, 0.0 ], [ 9.076761, 39.266059, 0.0 ], [ 9.074667, 39.263978, 0.0 ], [ 9.075884, 39.263598, 0.0 ], [ 9.077585, 39.265431, 0.0 ] ] ] } },
{ "type": "Feature", "properties": { "Classcode": "Urban", "Classname": "Urban and Developed", "Classvalue": 3, "RED": 138, "GREEN": 14, "BLUE": 123, "Count": 4 }, "geometry": { "type": "Polygon", "coordinates": [ [ [ 9.051004, 39.269631, 0.0 ], [ 9.050972, 39.270113, 0.0 ], [ 9.05027, 39.269802, 0.0 ], [ 9.050431, 39.269373, 0.0 ], [ 9.051004, 39.269631, 0.0 ] ] ] } },
{ "type": "Feature", "properties": { "Classcode": "Urban", "Classname": "Urban and Developed", "Classvalue": 3, "RED": 138, "GREEN": 14, "BLUE": 123, "Count": 6 }, "geometry": { "type": "Polygon", "coordinates": [ [ [ 9.044555, 39.270805, 0.0 ], [ 9.044121, 39.2711, 0.0 ], [ 9.043542, 39.270333, 0.0 ], [ 9.043939, 39.270129, 0.0 ], [ 9.044555, 39.270805, 0.0 ] ] ] } },
{ "type": "Feature", "properties": { "Classcode": "Urban", "Classname": "Urban and Developed", "Classvalue": 3, "RED": 138, "GREEN": 14, "BLUE": 123, "Count": 2 }, "geometry": { "type": "Polygon", "coordinates": [ [ [ 9.04945, 39.272869, 0.0 ], [ 9.049278, 39.272971, 0.0 ], [ 9.048678, 39.272461, 0.0 ], [ 9.048849, 39.272268, 0.0 ], [ 9.04945, 39.272869, 0.0 ] ] ] } },
{ "type": "Feature", "properties": { "Classcode": "Urban", "Classname": "Urban and Developed", "Classvalue": 3, "RED": 138, "GREEN": 14, "BLUE": 123, "Count": 1 }, "geometry": { "type": "Polygon", "coordinates": [ [ [ 9.052057, 39.278107, 0.0 ], [ 9.051908, 39.278163, 0.0 ], [ 9.05158, 39.277858, 0.0 ], [ 9.051801, 39.277709, 0.0 ], [ 9.052057, 39.278107, 0.0 ] ] ] } },
{ "type": "Feature", "properties": { "Classcode": "Urban", "Classname": "Urban and Developed", "Classvalue": 3, "RED": 138, "GREEN": 14, "BLUE": 123, "Count": 8 }, "geometry": { "type": "Polygon", "coordinates": [ [ [ 9.139357, 39.253447, 0.0 ], [ 9.140188, 39.25378, 0.0 ], [ 9.139755, 39.25412, 0.0 ], [ 9.139025, 39.253718, 0.0 ], [ 9.138791, 39.253368, 0.0 ], [ 9.139021, 39.252809, 0.0 ], [ 9.139357, 39.253447, 0.0 ] ] ] } },
{ "type": "Feature", "properties": { "Classcode": "Urban", "Classname": "Urban and Developed", "Classvalue": 3, "RED": 138, "GREEN": 14, "BLUE": 123, "Count": 1 }, "geometry": { "type": "Polygon", "coordinates": [ [ [ 9.149891, 39.258689, 0.0 ], [ 9.149861, 39.258794, 0.0 ], [ 9.149281, 39.258551, 0.0 ], [ 9.149404, 39.258445, 0.0 ], [ 9.149891, 39.258689, 0.0 ] ] ] } },
{ "type": "Feature", "properties": { "Classcode": "Urban", "Classname": "Urban and Developed", "Classvalue": 3, "RED": 138, "GREEN": 14, "BLUE": 123, "Count": 1 }, "geometry": { "type": "Polygon", "coordinates": [ [ [ 9.160756, 39.259284, 0.0 ], [ 9.160838, 39.259466, 0.0 ], [ 9.15992, 39.258739, 0.0 ], [ 9.160122, 39.258663, 0.0 ], [ 9.160756, 39.259284, 0.0 ] ] ] } },
{ "type": "Feature", "properties": { "Classcode": "Urban", "Classname": "Urban and Developed", "Classvalue": 3, "RED": 138, "GREEN": 14, "BLUE": 123, "Count": 1 }, "geometry": { "type": "Polygon", "coordinates": [ [ [ 9.160455, 39.257554, 0.0 ], [ 9.160355, 39.257581, 0.0 ], [ 9.159755, 39.257087, 0.0 ], [ 9.15981, 39.256974, 0.0 ], [ 9.160455, 39.257554, 0.0 ] ] ] } },
{ "type": "Feature", "properties": { "Classcode": "Urban", "Classname": "Urban and Developed", "Classvalue": 3, "RED": 138, "GREEN": 14, "BLUE": 123, "Count": 2 }, "geometry": { "type": "Polygon", "coordinates": [ [ [ 8.595214, 39.902871, 0.0 ], [ 8.59484, 39.90294, 0.0 ], [ 8.594699, 39.902325, 0.0 ], [ 8.594902, 39.902236, 0.0 ], [ 8.595214, 39.902871, 0.0 ] ] ] } },
{ "type": "Feature", "properties": { "Classcode": "Urban", "Classname": "Urban and Developed", "Classvalue": 3, "RED": 138, "GREEN": 14, "BLUE": 123, "Count": 4 }, "geometry": { "type": "Polygon", "coordinates": [ [ [ 8.592692, 39.90166, 0.0 ], [ 8.592246, 39.901742, 0.0 ], [ 8.592085, 39.900902, 0.0 ], [ 8.592356, 39.900884, 0.0 ], [ 8.592692, 39.90166, 0.0 ] ] ] } },
{ "type": "Feature", "properties": { "Classcode": "Urban", "Classname": "Urban and Developed", "Classvalue": 3, "RED": 138, "GREEN": 14, "BLUE": 123, "Count": 1 }, "geometry": { "type": "Polygon", "coordinates": [ [ [ 8.589333, 39.898908, 0.0 ], [ 8.58897, 39.898935, 0.0 ], [ 8.588905, 39.89863, 0.0 ], [ 8.58927, 39.898629, 0.0 ], [ 8.589333, 39.898908, 0.0 ] ] ] } },
{ "type": "Feature", "properties": { "Classcode": "Urban", "Classname": "Urban and Developed", "Classvalue": 3, "RED": 138, "GREEN": 14, "BLUE": 123, "Count": 9 }, "geometry": { "type": "Polygon", "coordinates": [ [ [ 8.594414, 39.910944, 0.0 ], [ 8.592833, 39.911452, 0.0 ], [ 8.592668, 39.911026, 0.0 ], [ 8.594064, 39.910598, 0.0 ], [ 8.594414, 39.910944, 0.0 ] ] ] } },
{ "type": "Feature", "properties": { "Classcode": "Urban", "Classname": "Urban and Developed", "Classvalue": 3, "RED": 138, "GREEN": 14, "BLUE": 123, "Count": 10 }, "geometry": { "type": "Polygon", "coordinates": [ [ [ 8.323983, 40.558539, 0.0 ], [ 8.323482, 40.55915, 0.0 ], [ 8.322603, 40.558769, 0.0 ], [ 8.323128, 40.558155, 0.0 ], [ 8.323983, 40.558539, 0.0 ] ] ] } },
{ "type": "Feature", "properties": { "Classcode": "Urban", "Classname": "Urban and Developed", "Classvalue": 3, "RED": 138, "GREEN": 14, "BLUE": 123, "Count": 44 }, "geometry": { "type": "Polygon", "coordinates": [ [ [ 9.514343, 40.940404, 0.0 ], [ 9.513514, 40.942239, 0.0 ], [ 9.512274, 40.942088, 0.0 ], [ 9.512886, 40.939642, 0.0 ], [ 9.514343, 40.940404, 0.0 ] ] ] } },
{ "type": "Feature", "properties": { "Classcode": "Urban", "Classname": "Urban and Developed", "Classvalue": 3, "RED": 138, "GREEN": 14, "BLUE": 123, "Count": 10 }, "geometry": { "type": "Polygon", "coordinates": [ [ [ 9.518591, 40.943033, 0.0 ], [ 9.518355, 40.943521, 0.0 ], [ 9.517696, 40.94336, 0.0 ], [ 9.517219, 40.942851, 0.0 ], [ 9.517401, 40.942508, 0.0 ], [ 9.518591, 40.943033, 0.0 ] ] ] } },
{ "type": "Feature", "properties": { "Classcode": "Urban", "Classname": "Urban and Developed", "Classvalue": 3, "RED": 138, "GREEN": 14, "BLUE": 123, "Count": 10 }, "geometry": { "type": "Polygon", "coordinates": [ [ [ 9.523947, 40.939929, 0.0 ], [ 9.522735, 40.940605, 0.0 ], [ 9.522301, 40.94031, 0.0 ], [ 9.523432, 40.939511, 0.0 ], [ 9.523947, 40.939929, 0.0 ] ] ] } },
{ "type": "Feature", "properties": { "Classcode": "Urban", "Classname": "Urban and Developed", "Classvalue": 3, "RED": 138, "GREEN": 14, "BLUE": 123, "Count": 4 }, "geometry": { "type": "Polygon", "coordinates": [ [ [ 9.492919, 40.923193, 0.0 ], [ 9.492668, 40.924161, 0.0 ], [ 9.49237, 40.924099, 0.0 ], [ 9.49261, 40.923114, 0.0 ], [ 9.492919, 40.923193, 0.0 ] ] ] } },
{ "type": "Feature", "properties": { "Classcode": "Urban", "Classname": "Urban and Developed", "Classvalue": 3, "RED": 138, "GREEN": 14, "BLUE": 123, "Count": 9 }, "geometry": { "type": "Polygon", "coordinates": [ [ [ 9.490661, 40.927074, 0.0 ], [ 9.490328, 40.927063, 0.0 ], [ 9.489932, 40.925197, 0.0 ], [ 9.490264, 40.925026, 0.0 ], [ 9.490661, 40.927074, 0.0 ] ] ] } },
{ "type": "Feature", "properties": { "Classcode": "Urban", "Classname": "Urban and Developed", "Classvalue": 3, "RED": 138, "GREEN": 14, "BLUE": 123, "Count": 9 }, "geometry": { "type": "Polygon", "coordinates": [ [ [ 9.488489, 40.927729, 0.0 ], [ 9.488105, 40.927849, 0.0 ], [ 9.487223, 40.926391, 0.0 ], [ 9.487615, 40.926271, 0.0 ], [ 9.488489, 40.927729, 0.0 ] ] ] } },
{ "type": "Feature", "properties": { "Classcode": "Urban", "Classname": "Urban and Developed", "Classvalue": 3, "RED": 138, "GREEN": 14, "BLUE": 123, "Count": 3 }, "geometry": { "type": "Polygon", "coordinates": [ [ [ 9.48899, 40.928549, 0.0 ], [ 9.488637, 40.92869, 0.0 ], [ 9.488218, 40.927949, 0.0 ], [ 9.488527, 40.927873, 0.0 ], [ 9.48899, 40.928549, 0.0 ] ] ] } },
{ "type": "Feature", "properties": { "Classcode": "Urban", "Classname": "Urban and Developed", "Classvalue": 3, "RED": 138, "GREEN": 14, "BLUE": 123, "Count": 1 }, "geometry": { "type": "Polygon", "coordinates": [ [ [ 9.494906, 40.938701, 0.0 ], [ 9.49451, 40.938698, 0.0 ], [ 9.494342, 40.93846, 0.0 ], [ 9.494875, 40.938397, 0.0 ], [ 9.494906, 40.938701, 0.0 ] ] ] } },
{ "type": "Feature", "properties": { "Classcode": "Urban", "Classname": "Urban and Developed", "Classvalue": 3, "RED": 138, "GREEN": 14, "BLUE": 123, "Count": 16 }, "geometry": { "type": "Polygon", "coordinates": [ [ [ 8.561226, 40.726762, 0.0 ], [ 8.560078, 40.726921, 0.0 ], [ 8.559752, 40.726193, 0.0 ], [ 8.561159, 40.725707, 0.0 ], [ 8.561226, 40.726762, 0.0 ] ] ] } },
{ "type": "Feature", "properties": { "Classcode": "Urban", "Classname": "Urban and Developed", "Classvalue": 3, "RED": 138, "GREEN": 14, "BLUE": 123, "Count": 8 }, "geometry": { "type": "Polygon", "coordinates": [ [ [ 8.559422, 40.72953, 0.0 ], [ 8.5589, 40.729853, 0.0 ], [ 8.558039, 40.729139, 0.0 ], [ 8.558632, 40.728871, 0.0 ], [ 8.559422, 40.72953, 0.0 ] ] ] } },
{ "type": "Feature", "properties": { "Classcode": "Urban", "Classname": "Urban and Developed", "Classvalue": 3, "RED": 138, "GREEN": 14, "BLUE": 123, "Count": 6 }, "geometry": { "type": "Polygon", "coordinates": [ [ [ 8.557874, 40.730868, 0.0 ], [ 8.556756, 40.731105, 0.0 ], [ 8.556615, 40.730676, 0.0 ], [ 8.557713, 40.73046, 0.0 ], [ 8.557874, 40.730868, 0.0 ] ] ] } },
{ "type": "Feature", "properties": { "Classcode": "Urban", "Classname": "Urban and Developed", "Classvalue": 3, "RED": 138, "GREEN": 14, "BLUE": 123, "Count": 29 }, "geometry": { "type": "Polygon", "coordinates": [ [ [ 8.548368, 40.732734, 0.0 ], [ 8.546947, 40.733361, 0.0 ], [ 8.545886, 40.732321, 0.0 ], [ 8.548185, 40.731833, 0.0 ], [ 8.548368, 40.732734, 0.0 ] ] ] } },
{ "type": "Feature", "properties": { "Classcode": "Urban", "Classname": "Urban and Developed", "Classvalue": 3, "RED": 138, "GREEN": 14, "BLUE": 123, "Count": 28 }, "geometry": { "type": "Polygon", "coordinates": [ [ [ 8.538327, 40.735012, 0.0 ], [ 8.536413, 40.735334, 0.0 ], [ 8.536241, 40.734074, 0.0 ], [ 8.537834, 40.733956, 0.0 ], [ 8.538327, 40.735012, 0.0 ] ] ] } },
{ "type": "Feature", "properties": { "Classcode": "Urban", "Classname": "Urban and Developed", "Classvalue": 3, "RED": 138, "GREEN": 14, "BLUE": 123, "Count": 17 }, "geometry": { "type": "Polygon", "coordinates": [ [ [ 8.539233, 40.733077, 0.0 ], [ 8.536692, 40.733737, 0.0 ], [ 8.536772, 40.733131, 0.0 ], [ 8.53912, 40.732638, 0.0 ], [ 8.539233, 40.733077, 0.0 ] ] ] } },
{ "type": "Feature", "properties": { "Classcode": "Urban", "Classname": "Urban and Developed", "Classvalue": 3, "RED": 138, "GREEN": 14, "BLUE": 123, "Count": 18 }, "geometry": { "type": "Polygon", "coordinates": [ [ [ 8.539211, 40.731715, 0.0 ], [ 8.539243, 40.732096, 0.0 ], [ 8.537233, 40.732321, 0.0 ], [ 8.536858, 40.731951, 0.0 ], [ 8.539072, 40.731346, 0.0 ], [ 8.539072, 40.731335, 0.0 ], [ 8.539211, 40.731715, 0.0 ] ] ] } },
{ "type": "Feature", "properties": { "Classcode": "Urban", "Classname": "Urban and Developed", "Classvalue": 3, "RED": 138, "GREEN": 14, "BLUE": 123, "Count": 1 }, "geometry": { "type": "Polygon", "coordinates": [ [ [ 9.333543, 40.320616, 0.0 ], [ 9.333219, 40.320729, 0.0 ], [ 9.332649, 40.320434, 0.0 ], [ 9.332997, 40.320371, 0.0 ], [ 9.333543, 40.320616, 0.0 ] ] ] } },
{ "type": "Feature", "properties": { "Classcode": "Urban", "Classname": "Urban and Developed", "Classvalue": 3, "RED": 138, "GREEN": 14, "BLUE": 123, "Count": 2 }, "geometry": { "type": "Polygon", "coordinates": [ [ [ 9.33231, 40.31934, 0.0 ], [ 9.331558, 40.319457, 0.0 ], [ 9.331512, 40.319248, 0.0 ], [ 9.332202, 40.319033, 0.0 ], [ 9.33231, 40.31934, 0.0 ] ] ] } },
{ "type": "Feature", "properties": { "Classcode": "Urban", "Classname": "Urban and Developed", "Classvalue": 3, "RED": 138, "GREEN": 14, "BLUE": 123, "Count": 3 }, "geometry": { "type": "Polygon", "coordinates": [ [ [ 9.337327, 40.325787, 0.0 ], [ 9.336888, 40.326023, 0.0 ], [ 9.33655, 40.325824, 0.0 ], [ 9.336894, 40.325431, 0.0 ], [ 9.337327, 40.325787, 0.0 ] ] ] } },
{ "type": "Feature", "properties": { "Classcode": "Urban", "Classname": "Urban and Developed", "Classvalue": 3, "RED": 138, "GREEN": 14, "BLUE": 123, "Count": 11 }, "geometry": { "type": "Polygon", "coordinates": [ [ [ 9.320169, 40.313547, 0.0 ], [ 9.319181, 40.313858, 0.0 ], [ 9.318599, 40.312935, 0.0 ], [ 9.319054, 40.312736, 0.0 ], [ 9.320169, 40.313547, 0.0 ] ] ] } },
{ "type": "Feature", "properties": { "Classcode": "Urban", "Classname": "Urban and Developed", "Classvalue": 3, "RED": 138, "GREEN": 14, "BLUE": 123, "Count": 75 }, "geometry": { "type": "Polygon", "coordinates": [ [ [ 8.53435, 39.306528, 0.0 ], [ 8.534014, 39.308732, 0.0 ], [ 8.531793, 39.308389, 0.0 ], [ 8.531929, 39.305968, 0.0 ], [ 8.53435, 39.306528, 0.0 ] ] ] } },
{ "type": "Feature", "properties": { "Classcode": "Urban", "Classname": "Urban and Developed", "Classvalue": 3, "RED": 138, "GREEN": 14, "BLUE": 123, "Count": 1 }, "geometry": { "type": "Polygon", "coordinates": [ [ [ 8.53371, 39.313177, 0.0 ], [ 8.533265, 39.313533, 0.0 ], [ 8.533088, 39.313448, 0.0 ], [ 8.53355, 39.312971, 0.0 ], [ 8.53371, 39.313177, 0.0 ] ] ] } },
{ "type": "Feature", "properties": { "Classcode": "Urban", "Classname": "Urban and Developed", "Classvalue": 3, "RED": 138, "GREEN": 14, "BLUE": 123, "Count": 4 }, "geometry": { "type": "Polygon", "coordinates": [ [ [ 8.535749, 39.31335, 0.0 ], [ 8.534616, 39.313625, 0.0 ], [ 8.534456, 39.313452, 0.0 ], [ 8.535546, 39.313049, 0.0 ], [ 8.535749, 39.31335, 0.0 ] ] ] } },
{ "type": "Feature", "properties": { "Classcode": "Urban", "Classname": "Urban and Developed", "Classvalue": 3, "RED": 138, "GREEN": 14, "BLUE": 123, "Count": 1 }, "geometry": { "type": "Polygon", "coordinates": [ [ [ 8.533789, 39.314027, 0.0 ], [ 8.533648, 39.314486, 0.0 ], [ 8.533425, 39.314309, 0.0 ], [ 8.533756, 39.313828, 0.0 ], [ 8.533789, 39.314027, 0.0 ] ] ] } },
{ "type": "Feature", "properties": { "Classcode": "Urban", "Classname": "Urban and Developed", "Classvalue": 3, "RED": 138, "GREEN": 14, "BLUE": 123, "Count": 2 }, "geometry": { "type": "Polygon", "coordinates": [ [ [ 8.53176, 39.314077, 0.0 ], [ 8.531626, 39.314332, 0.0 ], [ 8.530968, 39.31388, 0.0 ], [ 8.531122, 39.313749, 0.0 ], [ 8.53176, 39.314077, 0.0 ] ] ] } },
{ "type": "Feature", "properties": { "Classcode": "Urban", "Classname": "Urban and Developed", "Classvalue": 3, "RED": 138, "GREEN": 14, "BLUE": 123, "Count": 2 }, "geometry": { "type": "Polygon", "coordinates": [ [ [ 8.530346, 39.312385, 0.0 ], [ 8.530052, 39.312836, 0.0 ], [ 8.529787, 39.312637, 0.0 ], [ 8.530163, 39.312202, 0.0 ], [ 8.530346, 39.312385, 0.0 ] ] ] } },
{ "type": "Feature", "properties": { "Classcode": "Urban", "Classname": "Urban and Developed", "Classvalue": 3, "RED": 138, "GREEN": 14, "BLUE": 123, "Count": 6 }, "geometry": { "type": "Polygon", "coordinates": [ [ [ 8.52412, 39.311224, 0.0 ], [ 8.523865, 39.311398, 0.0 ], [ 8.522805, 39.31025, 0.0 ], [ 8.52305, 39.310104, 0.0 ], [ 8.52412, 39.311224, 0.0 ] ] ] } },
{ "type": "Feature", "properties": { "Classcode": "Urban", "Classname": "Urban and Developed", "Classvalue": 3, "RED": 138, "GREEN": 14, "BLUE": 123, "Count": 5 }, "geometry": { "type": "Polygon", "coordinates": [ [ [ 8.528655, 39.30927, 0.0 ], [ 8.528723, 39.309417, 0.0 ], [ 8.52873, 39.309424, 0.0 ], [ 8.527644, 39.309862, 0.0 ], [ 8.527474, 39.309581, 0.0 ], [ 8.528557, 39.309093, 0.0 ], [ 8.528655, 39.30927, 0.0 ] ] ] } },
{ "type": "Feature", "properties": { "Classcode": "Urban", "Classname": "Urban and Developed", "Classvalue": 3, "RED": 138, "GREEN": 14, "BLUE": 123, "Count": 21 }, "geometry": { "type": "Polygon", "coordinates": [ [ [ 9.266433, 40.328591, 0.0 ], [ 9.263438, 40.328735, 0.0 ], [ 9.263526, 40.328184, 0.0 ], [ 9.26625, 40.328048, 0.0 ], [ 9.266433, 40.328591, 0.0 ] ] ] } },
{ "type": "Feature", "properties": { "Classcode": "Urban", "Classname": "Urban and Developed", "Classvalue": 3, "RED": 138, "GREEN": 14, "BLUE": 123, "Count": 21 }, "geometry": { "type": "Polygon", "coordinates": [ [ [ 9.26883, 40.326602, 0.0 ], [ 9.26752, 40.326754, 0.0 ], [ 9.267272, 40.325779, 0.0 ], [ 9.269381, 40.325739, 0.0 ], [ 9.26883, 40.326602, 0.0 ] ] ] } },
{ "type": "Feature", "properties": { "Classcode": "Urban", "Classname": "Urban and Developed", "Classvalue": 3, "RED": 138, "GREEN": 14, "BLUE": 123, "Count": 33 }, "geometry": { "type": "Polygon", "coordinates": [ [ [ 9.266369, 40.326171, 0.0 ], [ 9.264788, 40.326147, 0.0 ], [ 9.264213, 40.324916, 0.0 ], [ 9.266401, 40.32486, 0.0 ], [ 9.266369, 40.326171, 0.0 ] ] ] } },
{ "type": "Feature", "properties": { "Classcode": "Urban", "Classname": "Urban and Developed", "Classvalue": 3, "RED": 138, "GREEN": 14, "BLUE": 123, "Count": 44 }, "geometry": { "type": "Polygon", "coordinates": [ [ [ 9.260242, 40.328447, 0.0 ], [ 9.259036, 40.329478, 0.0 ], [ 9.257758, 40.328287, 0.0 ], [ 9.259603, 40.326897, 0.0 ], [ 9.260242, 40.328447, 0.0 ] ] ] } },
{ "type": "Feature", "properties": { "Classcode": "Empty Fields", "Classname": "Bare/Fallow/Rocks", "Classvalue": 4, "RED": 230, "GREEN": 152, "BLUE": 0, "Count": 336 }, "geometry": { "type": "Polygon", "coordinates": [ [ [ 9.074293, 39.207407, 0.0 ], [ 9.0699, 39.210939, 0.0 ], [ 9.066504, 39.208493, 0.0 ], [ 9.070187, 39.204736, 0.0 ], [ 9.070948, 39.205011, 0.0 ], [ 9.070923, 39.205011, 0.0 ], [ 9.074293, 39.207407, 0.0 ] ] ] } },
{ "type": "Feature", "properties": { "Classcode": "Empty Fields", "Classname": "Bare/Fallow/Rocks", "Classvalue": 4, "RED": 230, "GREEN": 152, "BLUE": 0, "Count": 240 }, "geometry": { "type": "Polygon", "coordinates": [ [ [ 9.442202, 40.177759, 0.0 ], [ 9.440524, 40.179982, 0.0 ], [ 9.437521, 40.178597, 0.0 ], [ 9.434244, 40.17575, 0.0 ], [ 9.437306, 40.175282, 0.0 ], [ 9.442202, 40.177759, 0.0 ] ] ] } },
{ "type": "Feature", "properties": { "Classcode": "Empty Fields", "Classname": "Bare/Fallow/Rocks", "Classvalue": 4, "RED": 230, "GREEN": 152, "BLUE": 0, "Count": 205 }, "geometry": { "type": "Polygon", "coordinates": [ [ [ 9.43481, 40.17144, 0.0 ], [ 9.433523, 40.173838, 0.0 ], [ 9.430597, 40.171927, 0.0 ], [ 9.429115, 40.169197, 0.0 ], [ 9.43208, 40.168943, 0.0 ], [ 9.43481, 40.17144, 0.0 ] ] ] } },
{ "type": "Feature", "properties": { "Classcode": "Empty Fields", "Classname": "Bare/Fallow/Rocks", "Classvalue": 4, "RED": 230, "GREEN": 152, "BLUE": 0, "Count": 148 }, "geometry": { "type": "Polygon", "coordinates": [ [ [ 9.428803, 40.165901, 0.0 ], [ 9.427379, 40.1667, 0.0 ], [ 9.424259, 40.162137, 0.0 ], [ 9.426151, 40.160947, 0.0 ], [ 9.428803, 40.165901, 0.0 ] ] ] } },
{ "type": "Feature", "properties": { "Classcode": "Empty Fields", "Classname": "Bare/Fallow/Rocks", "Classvalue": 4, "RED": 230, "GREEN": 152, "BLUE": 0, "Count": 56 }, "geometry": { "type": "Polygon", "coordinates": [ [ [ 9.43793, 40.152873, 0.0 ], [ 9.438613, 40.154335, 0.0 ], [ 9.434381, 40.153867, 0.0 ], [ 9.435668, 40.152853, 0.0 ], [ 9.43793, 40.152873, 0.0 ] ] ] } },
{ "type": "Feature", "properties": { "Classcode": "Empty Fields", "Classname": "Bare/Fallow/Rocks", "Classvalue": 4, "RED": 230, "GREEN": 152, "BLUE": 0, "Count": 162 }, "geometry": { "type": "Polygon", "coordinates": [ [ [ 9.458935, 40.155974, 0.0 ], [ 9.457102, 40.155837, 0.0 ], [ 9.457492, 40.154023, 0.0 ], [ 9.455093, 40.152444, 0.0 ], [ 9.458994, 40.150123, 0.0 ], [ 9.458935, 40.155974, 0.0 ] ] ] } },
{ "type": "Feature", "properties": { "Classcode": "Empty Fields", "Classname": "Bare/Fallow/Rocks", "Classvalue": 4, "RED": 230, "GREEN": 152, "BLUE": 0, "Count": 59 }, "geometry": { "type": "Polygon", "coordinates": [ [ [ 9.464845, 40.179611, 0.0 ], [ 9.465001, 40.181152, 0.0 ], [ 9.462446, 40.181542, 0.0 ], [ 9.46268, 40.179416, 0.0 ], [ 9.464845, 40.179611, 0.0 ] ] ] } },
{ "type": "Feature", "properties": { "Classcode": "Empty Fields", "Classname": "Bare/Fallow/Rocks", "Classvalue": 4, "RED": 230, "GREEN": 152, "BLUE": 0, "Count": 150 }, "geometry": { "type": "Polygon", "coordinates": [ [ [ 9.475727, 40.189675, 0.0 ], [ 9.474557, 40.19026, 0.0 ], [ 9.470618, 40.187256, 0.0 ], [ 9.473231, 40.185345, 0.0 ], [ 9.475727, 40.189675, 0.0 ] ] ] } },
{ "type": "Feature", "properties": { "Classcode": "Empty Fields", "Classname": "Bare/Fallow/Rocks", "Classvalue": 4, "RED": 230, "GREEN": 152, "BLUE": 0, "Count": 113 }, "geometry": { "type": "Polygon", "coordinates": [ [ [ 9.499111, 40.188524, 0.0 ], [ 9.498975, 40.189831, 0.0 ], [ 9.493319, 40.188466, 0.0 ], [ 9.494119, 40.186944, 0.0 ], [ 9.499111, 40.188524, 0.0 ] ] ] } },
{ "type": "Feature", "properties": { "Classcode": "Empty Fields", "Classname": "Bare/Fallow/Rocks", "Classvalue": 4, "RED": 230, "GREEN": 152, "BLUE": 0, "Count": 79 }, "geometry": { "type": "Polygon", "coordinates": [ [ [ 9.504065, 40.193224, 0.0 ], [ 9.502973, 40.193946, 0.0 ], [ 9.500535, 40.190084, 0.0 ], [ 9.501881, 40.189714, 0.0 ], [ 9.504065, 40.193224, 0.0 ] ] ] } },
{ "type": "Feature", "properties": { "Classcode": "Empty Fields", "Classname": "Bare/Fallow/Rocks", "Classvalue": 4, "RED": 230, "GREEN": 152, "BLUE": 0, "Count": 118 }, "geometry": { "type": "Polygon", "coordinates": [ [ [ 9.502388, 40.20871, 0.0 ], [ 9.500535, 40.208339, 0.0 ], [ 9.500204, 40.20438, 0.0 ], [ 9.502037, 40.203405, 0.0 ], [ 9.502388, 40.20871, 0.0 ] ] ] } },
{ "type": "Feature", "properties": { "Classcode": "Empty Fields", "Classname": "Bare/Fallow/Rocks", "Classvalue": 4, "RED": 230, "GREEN": 152, "BLUE": 0, "Count": 57 }, "geometry": { "type": "Polygon", "coordinates": [ [ [ 9.50738, 40.216785, 0.0 ], [ 9.505687, 40.216601, 0.0 ], [ 9.505447, 40.213693, 0.0 ], [ 9.506414, 40.21347, 0.0 ], [ 9.50738, 40.216785, 0.0 ] ] ] } },
{ "type": "Feature", "properties": { "Classcode": "Empty Fields", "Classname": "Bare/Fallow/Rocks", "Classvalue": 4, "RED": 230, "GREEN": 152, "BLUE": 0, "Count": 51 }, "geometry": { "type": "Polygon", "coordinates": [ [ [ 9.468473, 40.219481, 0.0 ], [ 9.466515, 40.220646, 0.0 ], [ 9.465426, 40.220201, 0.0 ], [ 9.465897, 40.219199, 0.0 ], [ 9.467778, 40.218397, 0.0 ], [ 9.468473, 40.219481, 0.0 ] ] ] } },
{ "type": "Feature", "properties": { "Classcode": "Empty Fields", "Classname": "Bare/Fallow/Rocks", "Classvalue": 4, "RED": 230, "GREEN": 152, "BLUE": 0, "Count": 265 }, "geometry": { "type": "Polygon", "coordinates": [ [ [ 9.440263, 40.264476, 0.0 ], [ 9.436469, 40.265437, 0.0 ], [ 9.434858, 40.261942, 0.0 ], [ 9.439714, 40.25982, 0.0 ], [ 9.440263, 40.264476, 0.0 ] ] ] } },
{ "type": "Feature", "properties": { "Classcode": "Empty Fields", "Classname": "Bare/Fallow/Rocks", "Classvalue": 4, "RED": 230, "GREEN": 152, "BLUE": 0, "Count": 178 }, "geometry": { "type": "Polygon", "coordinates": [ [ [ 9.445119, 40.265325, 0.0 ], [ 9.440825, 40.267684, 0.0 ], [ 9.439127, 40.266161, 0.0 ], [ 9.442909, 40.263065, 0.0 ], [ 9.445119, 40.265325, 0.0 ] ] ] } },
{ "type": "Feature", "properties": { "Classcode": "Empty Fields", "Classname": "Bare/Fallow/Rocks", "Classvalue": 4, "RED": 230, "GREEN": 152, "BLUE": 0, "Count": 165 }, "geometry": { "type": "Polygon", "coordinates": [ [ [ 9.451721, 40.259583, 0.0 ], [ 9.451472, 40.262441, 0.0 ], [ 9.446254, 40.259858, 0.0 ], [ 9.447652, 40.258235, 0.0 ], [ 9.451721, 40.259583, 0.0 ] ] ] } },
{ "type": "Feature", "properties": { "Classcode": "Empty Fields", "Classname": "Bare/Fallow/Rocks", "Classvalue": 4, "RED": 230, "GREEN": 152, "BLUE": 0, "Count": 104 }, "geometry": { "type": "Polygon", "coordinates": [ [ [ 9.446254, 40.260282, 0.0 ], [ 9.441661, 40.26133, 0.0 ], [ 9.441299, 40.259571, 0.0 ], [ 9.442947, 40.25846, 0.0 ], [ 9.446254, 40.260282, 0.0 ] ] ] } },
{ "type": "Feature", "properties": { "Classcode": "Empty Fields", "Classname": "Bare/Fallow/Rocks", "Classvalue": 4, "RED": 230, "GREEN": 152, "BLUE": 0, "Count": 29 }, "geometry": { "type": "MultiPolygon", "coordinates": [ [ [ [ 8.304099, 39.182821, 0.0 ], [ 8.30409, 39.18281, 0.0 ], [ 8.304101, 39.18282, 0.0 ], [ 8.304099, 39.182821, 0.0 ] ] ], [ [ [ 8.304099, 39.182821, 0.0 ], [ 8.304581, 39.183424, 0.0 ], [ 8.305466, 39.184185, 0.0 ], [ 8.304806, 39.185008, 0.0 ], [ 8.303196, 39.183546, 0.0 ], [ 8.304099, 39.182821, 0.0 ] ] ] ] } },
{ "type": "Feature", "properties": { "Classcode": "Empty Fields", "Classname": "Bare/Fallow/Rocks", "Classvalue": 4, "RED": 230, "GREEN": 152, "BLUE": 0, "Count": 27 }, "geometry": { "type": "Polygon", "coordinates": [ [ [ 8.299504, 39.181036, 0.0 ], [ 8.299949, 39.182273, 0.0 ], [ 8.298395, 39.181542, 0.0 ], [ 8.298359, 39.180141, 0.0 ], [ 8.299121, 39.180013, 0.0 ], [ 8.299504, 39.181036, 0.0 ] ] ] } },
{ "type": "Feature", "properties": { "Classcode": "Empty Fields", "Classname": "Bare/Fallow/Rocks", "Classvalue": 4, "RED": 230, "GREEN": 152, "BLUE": 0, "Count": 14 }, "geometry": { "type": "Polygon", "coordinates": [ [ [ 8.279929, 39.17827, 0.0 ], [ 8.279327, 39.179006, 0.0 ], [ 8.278839, 39.177946, 0.0 ], [ 8.279671, 39.177213, 0.0 ], [ 8.279929, 39.17827, 0.0 ] ] ] } },
{ "type": "Feature", "properties": { "Classcode": "Empty Fields", "Classname": "Bare/Fallow/Rocks", "Classvalue": 4, "RED": 230, "GREEN": 152, "BLUE": 0, "Count": 10 }, "geometry": { "type": "Polygon", "coordinates": [ [ [ 8.281539, 39.179631, 0.0 ], [ 8.280426, 39.179474, 0.0 ], [ 8.280629, 39.178954, 0.0 ], [ 8.281974, 39.178918, 0.0 ], [ 8.281539, 39.179631, 0.0 ] ] ] } },
{ "type": "Feature", "properties": { "Classcode": "Empty Fields", "Classname": "Bare/Fallow/Rocks", "Classvalue": 4, "RED": 230, "GREEN": 152, "BLUE": 0, "Count": 24 }, "geometry": { "type": "Polygon", "coordinates": [ [ [ 8.269517, 39.177579, 0.0 ], [ 8.269501, 39.178617, 0.0 ], [ 8.268303, 39.178747, 0.0 ], [ 8.267685, 39.177432, 0.0 ], [ 8.269517, 39.177579, 0.0 ] ] ] } },
{ "type": "Feature", "properties": { "Classcode": "Empty Fields", "Classname": "Bare/Fallow/Rocks", "Classvalue": 4, "RED": 230, "GREEN": 152, "BLUE": 0, "Count": 12 }, "geometry": { "type": "Polygon", "coordinates": [ [ [ 8.221827, 39.146969, 0.0 ], [ 8.221055, 39.14673, 0.0 ], [ 8.220937, 39.145942, 0.0 ], [ 8.221775, 39.145579, 0.0 ], [ 8.221827, 39.146969, 0.0 ] ] ] } },
{ "type": "Feature", "properties": { "Classcode": "Empty Fields", "Classname": "Bare/Fallow/Rocks", "Classvalue": 4, "RED": 230, "GREEN": 152, "BLUE": 0, "Count": 6 }, "geometry": { "type": "Polygon", "coordinates": [ [ [ 8.220787, 39.146871, 0.0 ], [ 8.220355, 39.147751, 0.0 ], [ 8.220047, 39.147663, 0.0 ], [ 8.22022, 39.146675, 0.0 ], [ 8.220787, 39.146871, 0.0 ] ] ] } },
{ "type": "Feature", "properties": { "Classcode": "Empty Fields", "Classname": "Bare/Fallow/Rocks", "Classvalue": 4, "RED": 230, "GREEN": 152, "BLUE": 0, "Count": 24 }, "geometry": { "type": "Polygon", "coordinates": [ [ [ 8.437253, 39.288094, 0.0 ], [ 8.436466, 39.288319, 0.0 ], [ 8.435786, 39.286315, 0.0 ], [ 8.436604, 39.286023, 0.0 ], [ 8.437253, 39.288094, 0.0 ] ] ] } },
{ "type": "Feature", "properties": { "Classcode": "Empty Fields", "Classname": "Bare/Fallow/Rocks", "Classvalue": 4, "RED": 230, "GREEN": 152, "BLUE": 0, "Count": 27 }, "geometry": { "type": "Polygon", "coordinates": [ [ [ 8.431384, 39.278549, 0.0 ], [ 8.431368, 39.279121, 0.0 ], [ 8.4303, 39.278712, 0.0 ], [ 8.430131, 39.277132, 0.0 ], [ 8.430872, 39.276647, 0.0 ], [ 8.431384, 39.278549, 0.0 ] ] ] } },
{ "type": "Feature", "properties": { "Classcode": "Empty Fields", "Classname": "Bare/Fallow/Rocks", "Classvalue": 4, "RED": 230, "GREEN": 152, "BLUE": 0, "Count": 4 }, "geometry": { "type": "Polygon", "coordinates": [ [ [ 8.427362, 39.271429, 0.0 ], [ 8.427581, 39.272106, 0.0 ], [ 8.427097, 39.271481, 0.0 ], [ 8.426445, 39.270718, 0.0 ], [ 8.426619, 39.270581, 0.0 ], [ 8.427362, 39.271429, 0.0 ] ] ] } },
{ "type": "Feature", "properties": { "Classcode": "Empty Fields", "Classname": "Bare/Fallow/Rocks", "Classvalue": 4, "RED": 230, "GREEN": 152, "BLUE": 0, "Count": 2 }, "geometry": { "type": "Polygon", "coordinates": [ [ [ 8.413467, 39.264081, 0.0 ], [ 8.413224, 39.264364, 0.0 ], [ 8.413197, 39.26451, 0.0 ], [ 8.412856, 39.264314, 0.0 ], [ 8.413205, 39.263886, 0.0 ], [ 8.413467, 39.264081, 0.0 ] ] ] } },
{ "type": "Feature", "properties": { "Classcode": "Empty Fields", "Classname": "Bare/Fallow/Rocks", "Classvalue": 4, "RED": 230, "GREEN": 152, "BLUE": 0, "Count": 19 }, "geometry": { "type": "Polygon", "coordinates": [ [ [ 8.401522, 39.403206, 0.0 ], [ 8.400345, 39.403185, 0.0 ], [ 8.399219, 39.40263, 0.0 ], [ 8.400475, 39.402017, 0.0 ], [ 8.401522, 39.403206, 0.0 ] ] ] } },
{ "type": "Feature", "properties": { "Classcode": "Empty Fields", "Classname": "Bare/Fallow/Rocks", "Classvalue": 4, "RED": 230, "GREEN": 152, "BLUE": 0, "Count": 10 }, "geometry": { "type": "Polygon", "coordinates": [ [ [ 8.397049, 39.399448, 0.0 ], [ 8.396071, 39.400092, 0.0 ], [ 8.395881, 39.399526, 0.0 ], [ 8.396614, 39.398787, 0.0 ], [ 8.397049, 39.399448, 0.0 ] ] ] } },
{ "type": "Feature", "properties": { "Classcode": "Empty Fields", "Classname": "Bare/Fallow/Rocks", "Classvalue": 4, "RED": 230, "GREEN": 152, "BLUE": 0, "Count": 33 }, "geometry": { "type": "Polygon", "coordinates": [ [ [ 8.413165, 39.436132, 0.0 ], [ 8.413149, 39.438608, 0.0 ], [ 8.412055, 39.438616, 0.0 ], [ 8.412558, 39.435485, 0.0 ], [ 8.413165, 39.436132, 0.0 ] ] ] } },
{ "type": "Feature", "properties": { "Classcode": "Empty Fields", "Classname": "Bare/Fallow/Rocks", "Classvalue": 4, "RED": 230, "GREEN": 152, "BLUE": 0, "Count": 8 }, "geometry": { "type": "Polygon", "coordinates": [ [ [ 8.386459, 39.466677, 0.0 ], [ 8.386025, 39.466907, 0.0 ], [ 8.385483, 39.466293, 0.0 ], [ 8.386378, 39.465761, 0.0 ], [ 8.386459, 39.466677, 0.0 ] ] ] } },
{ "type": "Feature", "properties": { "Classcode": "Empty Fields", "Classname": "Bare/Fallow/Rocks", "Classvalue": 4, "RED": 230, "GREEN": 152, "BLUE": 0, "Count": 8 }, "geometry": { "type": "Polygon", "coordinates": [ [ [ 8.389655, 39.471081, 0.0 ], [ 8.389176, 39.471033, 0.0 ], [ 8.388625, 39.470546, 0.0 ], [ 8.389767, 39.470107, 0.0 ], [ 8.389655, 39.471081, 0.0 ] ] ] } },
{ "type": "Feature", "properties": { "Classcode": "Empty Fields", "Classname": "Bare/Fallow/Rocks", "Classvalue": 4, "RED": 230, "GREEN": 152, "BLUE": 0, "Count": 21 }, "geometry": { "type": "Polygon", "coordinates": [ [ [ 8.394169, 39.472122, 0.0 ], [ 8.3951, 39.472812, 0.0 ], [ 8.394491, 39.473318, 0.0 ], [ 8.393044, 39.472183, 0.0 ], [ 8.393908, 39.471314, 0.0 ], [ 8.394169, 39.472122, 0.0 ] ] ] } },
{ "type": "Feature", "properties": { "Classcode": "Empty Fields", "Classname": "Bare/Fallow/Rocks", "Classvalue": 4, "RED": 230, "GREEN": 152, "BLUE": 0, "Count": 8 }, "geometry": { "type": "Polygon", "coordinates": [ [ [ 8.416997, 39.481636, 0.0 ], [ 8.416501, 39.482101, 0.0 ], [ 8.416077, 39.481176, 0.0 ], [ 8.41693, 39.481038, 0.0 ], [ 8.416997, 39.481636, 0.0 ] ] ] } },
{ "type": "Feature", "properties": { "Classcode": "Empty Fields", "Classname": "Bare/Fallow/Rocks", "Classvalue": 4, "RED": 230, "GREEN": 152, "BLUE": 0, "Count": 7 }, "geometry": { "type": "Polygon", "coordinates": [ [ [ 8.417462, 39.477183, 0.0 ], [ 8.416419, 39.477996, 0.0 ], [ 8.416256, 39.477705, 0.0 ], [ 8.416833, 39.476866, 0.0 ], [ 8.417462, 39.477183, 0.0 ] ] ] } },
{ "type": "Feature", "properties": { "Classcode": "Empty Fields", "Classname": "Bare/Fallow/Rocks", "Classvalue": 4, "RED": 230, "GREEN": 152, "BLUE": 0, "Count": 32 }, "geometry": { "type": "Polygon", "coordinates": [ [ [ 8.463315, 39.531125, 0.0 ], [ 8.462173, 39.532025, 0.0 ], [ 8.461119, 39.530599, 0.0 ], [ 8.461957, 39.529807, 0.0 ], [ 8.463315, 39.531125, 0.0 ] ] ] } },
{ "type": "Feature", "properties": { "Classcode": "Empty Fields", "Classname": "Bare/Fallow/Rocks", "Classvalue": 4, "RED": 230, "GREEN": 152, "BLUE": 0, "Count": 48 }, "geometry": { "type": "Polygon", "coordinates": [ [ [ 8.450745, 39.538033, 0.0 ], [ 8.447376, 39.538774, 0.0 ], [ 8.446957, 39.537599, 0.0 ], [ 8.450351, 39.537271, 0.0 ], [ 8.450745, 39.538033, 0.0 ] ] ] } },
{ "type": "Feature", "properties": { "Classcode": "Empty Fields", "Classname": "Bare/Fallow/Rocks", "Classvalue": 4, "RED": 230, "GREEN": 152, "BLUE": 0, "Count": 57 }, "geometry": { "type": "Polygon", "coordinates": [ [ [ 9.300536, 39.715399, 0.0 ], [ 9.299106, 39.716358, 0.0 ], [ 9.298187, 39.71599, 0.0 ], [ 9.298571, 39.714121, 0.0 ], [ 9.299545, 39.713314, 0.0 ], [ 9.300536, 39.715399, 0.0 ] ] ] } },
{ "type": "Feature", "properties": { "Classcode": "Empty Fields", "Classname": "Bare/Fallow/Rocks", "Classvalue": 4, "RED": 230, "GREEN": 152, "BLUE": 0, "Count": 56 }, "geometry": { "type": "Polygon", "coordinates": [ [ [ 9.676596, 39.711627, 0.0 ], [ 9.676745, 39.714373, 0.0 ], [ 9.674823, 39.71441, 0.0 ], [ 9.675947, 39.711003, 0.0 ], [ 9.676596, 39.711627, 0.0 ] ] ] } },
{ "type": "Feature", "properties": { "Classcode": "Empty Fields", "Classname": "Bare/Fallow/Rocks", "Classvalue": 4, "RED": 230, "GREEN": 152, "BLUE": 0, "Count": 40 }, "geometry": { "type": "Polygon", "coordinates": [ [ [ 9.593092, 40.151527, 0.0 ], [ 9.592592, 40.152987, 0.0 ], [ 9.59102, 40.152625, 0.0 ], [ 9.591506, 40.150691, 0.0 ], [ 9.593092, 40.151527, 0.0 ] ] ] } },
{ "type": "Feature", "properties": { "Classcode": "Empty Fields", "Classname": "Bare/Fallow/Rocks", "Classvalue": 4, "RED": 230, "GREEN": 152, "BLUE": 0, "Count": 13 }, "geometry": { "type": "Polygon", "coordinates": [ [ [ 9.32413, 41.250829, 0.0 ], [ 9.323782, 41.25177, 0.0 ], [ 9.322913, 41.251775, 0.0 ], [ 9.322995, 41.250819, 0.0 ], [ 9.32413, 41.250829, 0.0 ] ] ] } },
{ "type": "Feature", "properties": { "Classcode": "Empty Fields", "Classname": "Bare/Fallow/Rocks", "Classvalue": 4, "RED": 230, "GREEN": 152, "BLUE": 0, "Count": 26 }, "geometry": { "type": "Polygon", "coordinates": [ [ [ 9.323986, 41.250006, 0.0 ], [ 9.322683, 41.250599, 0.0 ], [ 9.321701, 41.24996, 0.0 ], [ 9.323608, 41.248947, 0.0 ], [ 9.323986, 41.250006, 0.0 ] ] ] } },
{ "type": "Feature", "properties": { "Classcode": "Empty Fields", "Classname": "Bare/Fallow/Rocks", "Classvalue": 4, "RED": 230, "GREEN": 152, "BLUE": 0, "Count": 16 }, "geometry": { "type": "MultiPolygon", "coordinates": [ [ [ [ 9.324038, 41.249168, 0.0 ], [ 9.324027, 41.249167, 0.0 ], [ 9.324038, 41.249162, 0.0 ], [ 9.324038, 41.249168, 0.0 ] ] ], [ [ [ 9.324038, 41.249168, 0.0 ], [ 9.324968, 41.249188, 0.0 ], [ 9.325234, 41.250236, 0.0 ], [ 9.324324, 41.250583, 0.0 ], [ 9.324181, 41.250128, 0.0 ], [ 9.324038, 41.249168, 0.0 ] ] ] ] } },
{ "type": "Feature", "properties": { "Classcode": "Empty Fields", "Classname": "Bare/Fallow/Rocks", "Classvalue": 4, "RED": 230, "GREEN": 152, "BLUE": 0, "Count": 8 }, "geometry": { "type": "Polygon", "coordinates": [ [ [ 8.863599, 41.014183, 0.0 ], [ 8.864286, 41.015394, 0.0 ], [ 8.863789, 41.015375, 0.0 ], [ 8.863406, 41.015132, 0.0 ], [ 8.863337, 41.014131, 0.0 ], [ 8.863599, 41.014183, 0.0 ] ] ] } },
{ "type": "Feature", "properties": { "Classcode": "Empty Fields", "Classname": "Bare/Fallow/Rocks", "Classvalue": 4, "RED": 230, "GREEN": 152, "BLUE": 0, "Count": 4 }, "geometry": { "type": "Polygon", "coordinates": [ [ [ 8.863393, 41.013639, 0.0 ], [ 8.862714, 41.013615, 0.0 ], [ 8.862634, 41.013223, 0.0 ], [ 8.863465, 41.013159, 0.0 ], [ 8.863393, 41.013639, 0.0 ] ] ] } },
{ "type": "Feature", "properties": { "Classcode": "Empty Fields", "Classname": "Bare/Fallow/Rocks", "Classvalue": 4, "RED": 230, "GREEN": 152, "BLUE": 0, "Count": 10 }, "geometry": { "type": "Polygon", "coordinates": [ [ [ 8.866961, 40.987602, 0.0 ], [ 8.866297, 40.987556, 0.0 ], [ 8.865397, 40.986216, 0.0 ], [ 8.865745, 40.986099, 0.0 ], [ 8.866961, 40.987602, 0.0 ] ] ] } },
{ "type": "Feature", "properties": { "Classcode": "Empty Fields", "Classname": "Bare/Fallow/Rocks", "Classvalue": 4, "RED": 230, "GREEN": 152, "BLUE": 0, "Count": 7 }, "geometry": { "type": "Polygon", "coordinates": [ [ [ 8.844955, 40.965181, 0.0 ], [ 8.844765, 40.9654, 0.0 ], [ 8.843636, 40.964412, 0.0 ], [ 8.84362, 40.963928, 0.0 ], [ 8.844955, 40.965181, 0.0 ] ] ] } },
{ "type": "Feature", "properties": { "Classcode": "Empty Fields", "Classname": "Bare/Fallow/Rocks", "Classvalue": 4, "RED": 230, "GREEN": 152, "BLUE": 0, "Count": 48 }, "geometry": { "type": "Polygon", "coordinates": [ [ [ 8.925921, 39.09648, 0.0 ], [ 8.924573, 39.096605, 0.0 ], [ 8.923874, 39.09512, 0.0 ], [ 8.925771, 39.093971, 0.0 ], [ 8.925921, 39.09648, 0.0 ] ] ] } },
{ "type": "Feature", "properties": { "Classcode": "Empty Fields", "Classname": "Bare/Fallow/Rocks", "Classvalue": 4, "RED": 230, "GREEN": 152, "BLUE": 0, "Count": 26 }, "geometry": { "type": "Polygon", "coordinates": [ [ [ 8.93135, 39.104244, 0.0 ], [ 8.931001, 39.106216, 0.0 ], [ 8.930239, 39.106129, 0.0 ], [ 8.930127, 39.104182, 0.0 ], [ 8.93135, 39.104244, 0.0 ] ] ] } },
{ "type": "Feature", "properties": { "Classcode": "Water", "Classname": "Water", "Classvalue": 5, "RED": 0, "GREEN": 112, "BLUE": 255, "Count": 312 }, "geometry": { "type": "Polygon", "coordinates": [ [ [ 8.617078, 39.088325, 0.0 ], [ 8.612603, 39.090896, 0.0 ], [ 8.60946, 39.08842, 0.0 ], [ 8.61265, 39.084944, 0.0 ], [ 8.617078, 39.088325, 0.0 ] ] ] } },
{ "type": "Feature", "properties": { "Classcode": "Water", "Classname": "Water", "Classvalue": 5, "RED": 0, "GREEN": 112, "BLUE": 255, "Count": 336 }, "geometry": { "type": "Polygon", "coordinates": [ [ [ 8.605413, 39.095134, 0.0 ], [ 8.604984, 39.100752, 0.0 ], [ 8.600889, 39.098371, 0.0 ], [ 8.602508, 39.091705, 0.0 ], [ 8.605413, 39.095134, 0.0 ] ] ] } },
{ "type": "Feature", "properties": { "Classcode": "Water", "Classname": "Water", "Classvalue": 5, "RED": 0, "GREEN": 112, "BLUE": 255, "Count": 143 }, "geometry": { "type": "Polygon", "coordinates": [ [ [ 8.605508, 39.103038, 0.0 ], [ 8.604556, 39.107418, 0.0 ], [ 8.602413, 39.106942, 0.0 ], [ 8.602699, 39.103038, 0.0 ], [ 8.605508, 39.103038, 0.0 ] ] ] } },
{ "type": "Feature", "properties": { "Classcode": "Water", "Classname": "Water", "Classvalue": 5, "RED": 0, "GREEN": 112, "BLUE": 255, "Count": 533 }, "geometry": { "type": "Polygon", "coordinates": [ [ [ 8.604784, 38.984393, 0.0 ], [ 8.602285, 38.985125, 0.0 ], [ 8.599116, 38.97708, 0.0 ], [ 8.603626, 38.973179, 0.0 ], [ 8.604784, 38.984393, 0.0 ] ] ] } },
{ "type": "Feature", "properties": { "Classcode": "Water", "Classname": "Water", "Classvalue": 5, "RED": 0, "GREEN": 112, "BLUE": 255, "Count": 305 }, "geometry": { "type": "Polygon", "coordinates": [ [ [ 8.629407, 38.963123, 0.0 ], [ 8.622398, 38.965317, 0.0 ], [ 8.621758, 38.962087, 0.0 ], [ 8.624683, 38.959832, 0.0 ], [ 8.629407, 38.963123, 0.0 ] ] ] } },
{ "type": "Feature", "properties": { "Classcode": "Water", "Classname": "Water", "Classvalue": 5, "RED": 0, "GREEN": 112, "BLUE": 255, "Count": 130 }, "geometry": { "type": "Polygon", "coordinates": [ [ [ 8.617827, 38.957729, 0.0 ], [ 8.615084, 38.962544, 0.0 ], [ 8.613865, 38.959679, 0.0 ], [ 8.616638, 38.956998, 0.0 ], [ 8.617827, 38.957729, 0.0 ] ] ] } },
{ "type": "Feature", "properties": { "Classcode": "Water", "Classname": "Water", "Classvalue": 5, "RED": 0, "GREEN": 112, "BLUE": 255, "Count": 1361 }, "geometry": { "type": "Polygon", "coordinates": [ [ [ 9.040278, 39.257024, 0.0 ], [ 9.035469, 39.265023, 0.0 ], [ 9.025899, 39.264452, 0.0 ], [ 9.036041, 39.250977, 0.0 ], [ 9.040278, 39.257024, 0.0 ] ] ] } },
{ "type": "Feature", "properties": { "Classcode": "Water", "Classname": "Water", "Classvalue": 5, "RED": 0, "GREEN": 112, "BLUE": 255, "Count": 1978 }, "geometry": { "type": "Polygon", "coordinates": [ [ [ 9.058324, 39.239692, 0.0 ], [ 9.036755, 39.246358, 0.0 ], [ 9.04185, 39.236597, 0.0 ], [ 9.059896, 39.233264, 0.0 ], [ 9.058324, 39.239692, 0.0 ] ] ] } },
{ "type": "Feature", "properties": { "Classcode": "Water", "Classname": "Water", "Classvalue": 5, "RED": 0, "GREEN": 112, "BLUE": 255, "Count": 1157 }, "geometry": { "type": "Polygon", "coordinates": [ [ [ 9.084322, 39.239073, 0.0 ], [ 9.073609, 39.24412, 0.0 ], [ 9.065371, 39.235169, 0.0 ], [ 9.072513, 39.235026, 0.0 ], [ 9.084322, 39.239073, 0.0 ] ] ] } },
{ "type": "Feature", "properties": { "Classcode": "Water", "Classname": "Water", "Classvalue": 5, "RED": 0, "GREEN": 112, "BLUE": 255, "Count": 947 }, "geometry": { "type": "Polygon", "coordinates": [ [ [ 9.094369, 39.218075, 0.0 ], [ 9.092083, 39.224884, 0.0 ], [ 9.085322, 39.23055, 0.0 ], [ 9.083179, 39.227265, 0.0 ], [ 9.089607, 39.217694, 0.0 ], [ 9.094369, 39.218075, 0.0 ] ] ] } },
{ "type": "Feature", "properties": { "Classcode": "Water", "Classname": "Water", "Classvalue": 5, "RED": 0, "GREEN": 112, "BLUE": 255, "Count": 177 }, "geometry": { "type": "Polygon", "coordinates": [ [ [ 9.06499, 39.217504, 0.0 ], [ 9.061324, 39.22017, 0.0 ], [ 9.059134, 39.216456, 0.0 ], [ 9.062038, 39.215885, 0.0 ], [ 9.06499, 39.217504, 0.0 ] ] ] } },
{ "type": "Feature", "properties": { "Classcode": "Water", "Classname": "Water", "Classvalue": 5, "RED": 0, "GREEN": 112, "BLUE": 255, "Count": 943 }, "geometry": { "type": "Polygon", "coordinates": [ [ [ 9.225729, 39.252852, 0.0 ], [ 9.222381, 39.256497, 0.0 ], [ 9.212486, 39.256348, 0.0 ], [ 9.222083, 39.24623, 0.0 ], [ 9.225729, 39.252852, 0.0 ] ] ] } },
{ "type": "Feature", "properties": { "Classcode": "Water", "Classname": "Water", "Classvalue": 5, "RED": 0, "GREEN": 112, "BLUE": 255, "Count": 550 }, "geometry": { "type": "Polygon", "coordinates": [ [ [ 9.203777, 39.227826, 0.0 ], [ 9.202354, 39.231746, 0.0 ], [ 9.193324, 39.228372, 0.0 ], [ 9.195586, 39.224452, 0.0 ], [ 9.203777, 39.227826, 0.0 ] ] ] } },
{ "type": "Feature", "properties": { "Classcode": "Water", "Classname": "Water", "Classvalue": 5, "RED": 0, "GREEN": 112, "BLUE": 255, "Count": 426 }, "geometry": { "type": "Polygon", "coordinates": [ [ [ 9.208029, 39.233131, 0.0 ], [ 9.203933, 39.231883, 0.0 ], [ 9.207171, 39.228353, 0.0 ], [ 9.214738, 39.229581, 0.0 ], [ 9.21544, 39.231629, 0.0 ], [ 9.210838, 39.231493, 0.0 ], [ 9.208029, 39.233131, 0.0 ] ] ] } },
{ "type": "Feature", "properties": { "Classcode": "Water", "Classname": "Water", "Classvalue": 5, "RED": 0, "GREEN": 112, "BLUE": 255, "Count": 177 }, "geometry": { "type": "Polygon", "coordinates": [ [ [ 9.230252, 39.252742, 0.0 ], [ 9.226869, 39.256338, 0.0 ], [ 9.22498, 39.255485, 0.0 ], [ 9.227326, 39.251219, 0.0 ], [ 9.230252, 39.252742, 0.0 ] ] ] } },
{ "type": "Feature", "properties": { "Classcode": "Water", "Classname": "Water", "Classvalue": 5, "RED": 0, "GREEN": 112, "BLUE": 255, "Count": 277 }, "geometry": { "type": "Polygon", "coordinates": [ [ [ 9.246951, 39.623177, 0.0 ], [ 9.243142, 39.625829, 0.0 ], [ 9.238114, 39.623726, 0.0 ], [ 9.24171, 39.621349, 0.0 ], [ 9.246951, 39.623177, 0.0 ] ] ] } },
{ "type": "Feature", "properties": { "Classcode": "Water", "Classname": "Water", "Classvalue": 5, "RED": 0, "GREEN": 112, "BLUE": 255, "Count": 343 }, "geometry": { "type": "Polygon", "coordinates": [ [ [ 9.253594, 39.621532, 0.0 ], [ 9.250608, 39.624122, 0.0 ], [ 9.245001, 39.62016, 0.0 ], [ 9.246098, 39.617601, 0.0 ], [ 9.253594, 39.621532, 0.0 ] ] ] } },
{ "type": "Feature", "properties": { "Classcode": "Water", "Classname": "Water", "Classvalue": 5, "RED": 0, "GREEN": 112, "BLUE": 255, "Count": 173 }, "geometry": { "type": "Polygon", "coordinates": [ [ [ 9.299455, 39.700618, 0.0 ], [ 9.296534, 39.705323, 0.0 ], [ 9.294312, 39.705236, 0.0 ], [ 9.297195, 39.700742, 0.0 ], [ 9.29722, 39.70073, 0.0 ], [ 9.298381, 39.698571, 0.0 ], [ 9.299455, 39.700618, 0.0 ] ] ] } },
{ "type": "Feature", "properties": { "Classcode": "Water", "Classname": "Water", "Classvalue": 5, "RED": 0, "GREEN": 112, "BLUE": 255, "Count": 68 }, "geometry": { "type": "Polygon", "coordinates": [ [ [ 9.300915, 39.69887, 0.0 ], [ 9.298281, 39.697485, 0.0 ], [ 9.300528, 39.694863, 0.0 ], [ 9.300915, 39.69887, 0.0 ] ] ] } },
{ "type": "Feature", "properties": { "Classcode": "Water", "Classname": "Water", "Classvalue": 5, "RED": 0, "GREEN": 112, "BLUE": 255, "Count": 98 }, "geometry": { "type": "Polygon", "coordinates": [ [ [ 9.30079, 39.69067, 0.0 ], [ 9.299504, 39.693441, 0.0 ], [ 9.298468, 39.688935, 0.0 ], [ 9.299991, 39.687661, 0.0 ], [ 9.30079, 39.69067, 0.0 ] ] ] } },
{ "type": "Feature", "properties": { "Classcode": "Water", "Classname": "Water", "Classvalue": 5, "RED": 0, "GREEN": 112, "BLUE": 255, "Count": 135 }, "geometry": { "type": "Polygon", "coordinates": [ [ [ 9.305471, 39.683205, 0.0 ], [ 9.300753, 39.686363, 0.0 ], [ 9.300029, 39.684291, 0.0 ], [ 9.304285, 39.682032, 0.0 ], [ 9.305471, 39.683205, 0.0 ] ] ] } },
{ "type": "Feature", "properties": { "Classcode": "Water", "Classname": "Water", "Classvalue": 5, "RED": 0, "GREEN": 112, "BLUE": 255, "Count": 95 }, "geometry": { "type": "Polygon", "coordinates": [ [ [ 9.310875, 39.676553, 0.0 ], [ 9.305396, 39.681034, 0.0 ], [ 9.306332, 39.679124, 0.0 ], [ 9.309852, 39.675467, 0.0 ], [ 9.310875, 39.676553, 0.0 ] ] ] } },
{ "type": "Feature", "properties": { "Classcode": "Water", "Classname": "Water", "Classvalue": 5, "RED": 0, "GREEN": 112, "BLUE": 255, "Count": 227 }, "geometry": { "type": "Polygon", "coordinates": [ [ [ 9.234548, 39.762593, 0.0 ], [ 9.232385, 39.762837, 0.0 ], [ 9.233177, 39.758723, 0.0 ], [ 9.237596, 39.753482, 0.0 ], [ 9.234548, 39.762593, 0.0 ] ] ] } },
{ "type": "Feature", "properties": { "Classcode": "Water", "Classname": "Water", "Classvalue": 5, "RED": 0, "GREEN": 112, "BLUE": 255, "Count": 65 }, "geometry": { "type": "Polygon", "coordinates": [ [ [ 9.195703, 40.136705, 0.0 ], [ 9.19348, 40.135379, 0.0 ], [ 9.196678, 40.134462, 0.0 ], [ 9.198317, 40.133955, 0.0 ], [ 9.195703, 40.136705, 0.0 ] ] ] } },
{ "type": "Feature", "properties": { "Classcode": "Water", "Classname": "Water", "Classvalue": 5, "RED": 0, "GREEN": 112, "BLUE": 255, "Count": 120 }, "geometry": { "type": "Polygon", "coordinates": [ [ [ 9.206332, 40.13413, 0.0 ], [ 9.204226, 40.133857, 0.0 ], [ 9.204324, 40.130776, 0.0 ], [ 9.207308, 40.130308, 0.0 ], [ 9.206332, 40.13413, 0.0 ] ] ] } },
{ "type": "Feature", "properties": { "Classcode": "Water", "Classname": "Water", "Classvalue": 5, "RED": 0, "GREEN": 112, "BLUE": 255, "Count": 23 }, "geometry": { "type": "Polygon", "coordinates": [ [ [ 9.216862, 40.133116, 0.0 ], [ 9.216525, 40.133915, 0.0 ], [ 9.214265, 40.133066, 0.0 ], [ 9.215501, 40.132604, 0.0 ], [ 9.216862, 40.133116, 0.0 ] ] ] } },
{ "type": "Feature", "properties": { "Classcode": "Water", "Classname": "Water", "Classvalue": 5, "RED": 0, "GREEN": 112, "BLUE": 255, "Count": 34 }, "geometry": { "type": "Polygon", "coordinates": [ [ [ 9.209947, 40.131806, 0.0 ], [ 9.211782, 40.133204, 0.0 ], [ 9.210321, 40.133503, 0.0 ], [ 9.208499, 40.131543, 0.0 ], [ 9.209947, 40.131806, 0.0 ] ] ] } },
{ "type": "Feature", "properties": { "Classcode": "Water", "Classname": "Water", "Classvalue": 5, "RED": 0, "GREEN": 112, "BLUE": 255, "Count": 161 }, "geometry": { "type": "Polygon", "coordinates": [ [ [ 9.208112, 40.128885, 0.0 ], [ 9.205328, 40.129122, 0.0 ], [ 9.206065, 40.12333, 0.0 ], [ 9.2074, 40.123318, 0.0 ], [ 9.208112, 40.128885, 0.0 ] ] ] } },
{ "type": "Feature", "properties": { "Classcode": "Water", "Classname": "Water", "Classvalue": 5, "RED": 0, "GREEN": 112, "BLUE": 255, "Count": 185 }, "geometry": { "type": "Polygon", "coordinates": [ [ [ 9.138063, 40.125827, 0.0 ], [ 9.138912, 40.128236, 0.0 ], [ 9.13513, 40.126663, 0.0 ], [ 9.13538, 40.122457, 0.0 ], [ 9.136915, 40.121783, 0.0 ], [ 9.138063, 40.125827, 0.0 ] ] ] } },
{ "type": "Feature", "properties": { "Classcode": "Water", "Classname": "Water", "Classvalue": 5, "RED": 0, "GREEN": 112, "BLUE": 255, "Count": 48 }, "geometry": { "type": "MultiPolygon", "coordinates": [ [ [ [ 9.134963, 40.118247, 0.0 ], [ 9.134756, 40.11815, 0.0 ], [ 9.134943, 40.118175, 0.0 ], [ 9.134963, 40.118247, 0.0 ] ] ], [ [ [ 9.134963, 40.118247, 0.0 ], [ 9.137764, 40.119548, 0.0 ], [ 9.137701, 40.120534, 0.0 ], [ 9.136004, 40.120397, 0.0 ], [ 9.135442, 40.119948, 0.0 ], [ 9.134963, 40.118247, 0.0 ] ] ] ] } },
{ "type": "Feature", "properties": { "Classcode": "Water", "Classname": "Water", "Classvalue": 5, "RED": 0, "GREEN": 112, "BLUE": 255, "Count": 159 }, "geometry": { "type": "Polygon", "coordinates": [ [ [ 9.161704, 40.580443, 0.0 ], [ 9.157335, 40.583713, 0.0 ], [ 9.155513, 40.582752, 0.0 ], [ 9.159407, 40.579195, 0.0 ], [ 9.161704, 40.580443, 0.0 ] ] ] } },
{ "type": "Feature", "properties": { "Classcode": "Water", "Classname": "Water", "Classvalue": 5, "RED": 0, "GREEN": 112, "BLUE": 255, "Count": 178 }, "geometry": { "type": "Polygon", "coordinates": [ [ [ 9.169368, 40.578846, 0.0 ], [ 9.161829, 40.579569, 0.0 ], [ 9.162603, 40.577373, 0.0 ], [ 9.168582, 40.577198, 0.0 ], [ 9.169368, 40.578846, 0.0 ] ] ] } },
{ "type": "Feature", "properties": { "Classcode": "Water", "Classname": "Water", "Classvalue": 5, "RED": 0, "GREEN": 112, "BLUE": 255, "Count": 1102 }, "geometry": { "type": "Polygon", "coordinates": [ [ [ 9.055789, 40.753312, 0.0 ], [ 9.050172, 40.758772, 0.0 ], [ 9.037105, 40.753058, 0.0 ], [ 9.03964, 40.750055, 0.0 ], [ 9.055789, 40.753312, 0.0 ] ] ] } },
{ "type": "Feature", "properties": { "Classcode": "Water", "Classname": "Water", "Classvalue": 5, "RED": 0, "GREEN": 112, "BLUE": 255, "Count": 925 }, "geometry": { "type": "Polygon", "coordinates": [ [ [ 9.030376, 40.759143, 0.0 ], [ 9.020781, 40.76513, 0.0 ], [ 9.017036, 40.762419, 0.0 ], [ 9.02788, 40.753312, 0.0 ], [ 9.030376, 40.759143, 0.0 ] ] ] } },
{ "type": "Feature", "properties": { "Classcode": "Water", "Classname": "Water", "Classvalue": 5, "RED": 0, "GREEN": 112, "BLUE": 255, "Count": 372 }, "geometry": { "type": "Polygon", "coordinates": [ [ [ 9.039153, 40.757368, 0.0 ], [ 9.034101, 40.75887, 0.0 ], [ 9.030279, 40.75653, 0.0 ], [ 9.033185, 40.752687, 0.0 ], [ 9.039153, 40.757368, 0.0 ] ] ] } },
{ "type": "Feature", "properties": { "Classcode": "Water", "Classname": "Water", "Classvalue": 5, "RED": 0, "GREEN": 112, "BLUE": 255, "Count": 230 }, "geometry": { "type": "Polygon", "coordinates": [ [ [ 9.019279, 40.765891, 0.0 ], [ 9.019396, 40.770182, 0.0 ], [ 9.015222, 40.768777, 0.0 ], [ 9.01573, 40.764526, 0.0 ], [ 9.019279, 40.765891, 0.0 ] ] ] } },
{ "type": "Feature", "properties": { "Classcode": "Water", "Classname": "Water", "Classvalue": 5, "RED": 0, "GREEN": 112, "BLUE": 255, "Count": 15 }, "geometry": { "type": "Polygon", "coordinates": [ [ [ 9.023921, 40.781607, 0.0 ], [ 9.022954, 40.781838, 0.0 ], [ 9.023074, 40.780433, 0.0 ], [ 9.023857, 40.780353, 0.0 ], [ 9.023921, 40.781607, 0.0 ] ] ] } },
{ "type": "Feature", "properties": { "Classcode": "Water", "Classname": "Water", "Classvalue": 5, "RED": 0, "GREEN": 112, "BLUE": 255, "Count": 18 }, "geometry": { "type": "Polygon", "coordinates": [ [ [ 9.021396, 40.784483, 0.0 ], [ 9.020941, 40.784834, 0.0 ], [ 9.020006, 40.783931, 0.0 ], [ 9.021364, 40.783029, 0.0 ], [ 9.021396, 40.784483, 0.0 ] ] ] } },
{ "type": "Feature", "properties": { "Classcode": "Water", "Classname": "Water", "Classvalue": 5, "RED": 0, "GREEN": 112, "BLUE": 255, "Count": 12 }, "geometry": { "type": "Polygon", "coordinates": [ [ [ 9.02313, 40.788956, 0.0 ], [ 9.023433, 40.790226, 0.0 ], [ 9.022626, 40.789907, 0.0 ], [ 9.022499, 40.788501, 0.0 ], [ 9.02313, 40.788956, 0.0 ] ] ] } },
{ "type": "Feature", "properties": { "Classcode": "Water", "Classname": "Water", "Classvalue": 5, "RED": 0, "GREEN": 112, "BLUE": 255, "Count": 14 }, "geometry": { "type": "Polygon", "coordinates": [ [ [ 9.024775, 40.790993, 0.0 ], [ 9.024775, 40.791009, 0.0 ], [ 9.025367, 40.792191, 0.0 ], [ 9.024807, 40.792271, 0.0 ], [ 9.023793, 40.791209, 0.0 ], [ 9.024233, 40.790952, 0.0 ], [ 9.024775, 40.790993, 0.0 ] ] ] } },
{ "type": "Feature", "properties": { "Classcode": "Water", "Classname": "Water", "Classvalue": 5, "RED": 0, "GREEN": 112, "BLUE": 255, "Count": 299 }, "geometry": { "type": "Polygon", "coordinates": [ [ [ 8.871294, 39.282022, 0.0 ], [ 8.868722, 39.284117, 0.0 ], [ 8.863485, 39.278117, 0.0 ], [ 8.86777, 39.278069, 0.0 ], [ 8.871294, 39.282022, 0.0 ] ] ] } },
{ "type": "Feature", "properties": { "Classcode": "Water", "Classname": "Water", "Classvalue": 5, "RED": 0, "GREEN": 112, "BLUE": 255, "Count": 623 }, "geometry": { "type": "Polygon", "coordinates": [ [ [ 8.88453, 39.286878, 0.0 ], [ 8.873103, 39.28545, 0.0 ], [ 8.876007, 39.282307, 0.0 ], [ 8.885911, 39.281688, 0.0 ], [ 8.88453, 39.286878, 0.0 ] ] ] } },
{ "type": "Feature", "properties": { "Classcode": "Water", "Classname": "Water", "Classvalue": 5, "RED": 0, "GREEN": 112, "BLUE": 255, "Count": 384 }, "geometry": { "type": "Polygon", "coordinates": [ [ [ 8.893339, 39.278641, 0.0 ], [ 8.890958, 39.281545, 0.0 ], [ 8.883959, 39.278498, 0.0 ], [ 8.887673, 39.275546, 0.0 ], [ 8.893339, 39.278641, 0.0 ] ] ] } },
{ "type": "Feature", "properties": { "Classcode": "Water", "Classname": "Water", "Classvalue": 5, "RED": 0, "GREEN": 112, "BLUE": 255, "Count": 245 }, "geometry": { "type": "Polygon", "coordinates": [ [ [ 9.675316, 39.94944, 0.0 ], [ 9.67048, 39.948473, 0.0 ], [ 9.668471, 39.946613, 0.0 ], [ 9.671373, 39.943637, 0.0 ], [ 9.675316, 39.94944, 0.0 ] ] ] } },
{ "type": "Feature", "properties": { "Classcode": "Water", "Classname": "Water", "Classvalue": 5, "RED": 0, "GREEN": 112, "BLUE": 255, "Count": 296 }, "geometry": { "type": "Polygon", "coordinates": [ [ [ 9.670778, 39.938653, 0.0 ], [ 9.669439, 39.944976, 0.0 ], [ 9.666835, 39.944084, 0.0 ], [ 9.667504, 39.936718, 0.0 ], [ 9.670778, 39.938653, 0.0 ] ] ] } },
{ "type": "Feature", "properties": { "Classcode": "Water", "Classname": "Water", "Classvalue": 5, "RED": 0, "GREEN": 112, "BLUE": 255, "Count": 154 }, "geometry": { "type": "Polygon", "coordinates": [ [ [ 9.677548, 39.942819, 0.0 ], [ 9.678143, 39.946539, 0.0 ], [ 9.676432, 39.946613, 0.0 ], [ 9.673903, 39.94081, 0.0 ], [ 9.677548, 39.942819, 0.0 ] ] ] } },
{ "type": "Feature", "properties": { "Classcode": "Water", "Classname": "Water", "Classvalue": 5, "RED": 0, "GREEN": 112, "BLUE": 255, "Count": 146 }, "geometry": { "type": "Polygon", "coordinates": [ [ [ 9.43572, 39.95264, 0.0 ], [ 9.436768, 39.9541, 0.0 ], [ 9.433835, 39.955736, 0.0 ], [ 9.430852, 39.952528, 0.0 ], [ 9.43572, 39.95264, 0.0 ] ] ] } },
{ "type": "Feature", "properties": { "Classcode": "Water", "Classname": "Water", "Classvalue": 5, "RED": 0, "GREEN": 112, "BLUE": 255, "Count": 62 }, "geometry": { "type": "Polygon", "coordinates": [ [ [ 9.440138, 39.951492, 0.0 ], [ 9.437742, 39.953239, 0.0 ], [ 9.436581, 39.951916, 0.0 ], [ 9.438541, 39.950581, 0.0 ], [ 9.440138, 39.951492, 0.0 ] ] ] } },
{ "type": "Feature", "properties": { "Classcode": "Water", "Classname": "Water", "Classvalue": 5, "RED": 0, "GREEN": 112, "BLUE": 255, "Count": 86 }, "geometry": { "type": "Polygon", "coordinates": [ [ [ 9.443421, 39.945401, 0.0 ], [ 9.441349, 39.948172, 0.0 ], [ 9.440088, 39.947373, 0.0 ], [ 9.442323, 39.943828, 0.0 ], [ 9.443421, 39.945401, 0.0 ] ] ] } },
{ "type": "Feature", "properties": { "Classcode": "Water", "Classname": "Water", "Classvalue": 5, "RED": 0, "GREEN": 112, "BLUE": 255, "Count": 51 }, "geometry": { "type": "Polygon", "coordinates": [ [ [ 9.446704, 39.942542, 0.0 ], [ 9.446829, 39.943503, 0.0 ], [ 9.444482, 39.944202, 0.0 ], [ 9.443945, 39.942318, 0.0 ], [ 9.446704, 39.942542, 0.0 ] ] ] } }
]
}
